{
"type": "FeatureCollection",
"name": "localidades_light",
"crs": { "type": "name", "properties": { "name": "urn:ogc:def:crs:OGC:1.3:CRS84" } },
"features": [
{ "type": "Feature", "properties": { "LocNombre": "ANTONIO NARIÑO", "LocCodigo": "15" }, "geometry": { "type": "Polygon", "coordinates": [ [ [ -74.130754462999903, 4.593353347000061 ], [ -74.120902395999906, 4.593784475000064 ], [ -74.107073005999951, 4.598243989000082 ], [ -74.103204472999948, 4.594661256000052 ], [ -74.09908454899994, 4.594919370000071 ], [ -74.090716050999902, 4.592532264000056 ], [ -74.084930867999901, 4.589319823000039 ], [ -74.094582458999923, 4.575796995000076 ], [ -74.102660813999933, 4.581372499000054 ], [ -74.108882310999945, 4.58922836000005 ], [ -74.116863210999952, 4.58844715500004 ], [ -74.124471423999921, 4.589959367000063 ], [ -74.130754462999903, 4.593353347000061 ] ] ] } },
{ "type": "Feature", "properties": { "LocNombre": "TUNJUELITO", "LocCodigo": "06" }, "geometry": { "type": "Polygon", "coordinates": [ [ [ -74.137766183999929, 4.594885111000053 ], [ -74.128290446999927, 4.592653188000043 ], [ -74.128609744999949, 4.586644792000072 ], [ -74.130875114999924, 4.585899686000062 ], [ -74.125255797999898, 4.569567335000045 ], [ -74.126632981999933, 4.566491781000082 ], [ -74.121424280999918, 4.555305419000092 ], [ -74.121148080999944, 4.545429557000091 ], [ -74.1238684409999, 4.544489567000085 ], [ -74.129977842999949, 4.546037806000072 ], [ -74.126939815999947, 4.547216574000061 ], [ -74.126304180999909, 4.546122844000081 ], [ -74.12536366799992, 4.547505709000063 ], [ -74.127097574999937, 4.549616141000058 ], [ -74.131969633999915, 4.549550765000049 ], [ -74.131969191999929, 4.552638315000081 ], [ -74.133887777999917, 4.555187152000087 ], [ -74.133191051999916, 4.556218551000086 ], [ -74.135258321999913, 4.557141269000056 ], [ -74.133987084999944, 4.55746326600007 ], [ -74.133877284999926, 4.560712534000061 ], [ -74.14044901199992, 4.564958417000071 ], [ -74.14046049399991, 4.568326329000058 ], [ -74.141709707999951, 4.568845486000043 ], [ -74.140460454999925, 4.570469039000045 ], [ -74.143245018999949, 4.572827117000088 ], [ -74.140961145999938, 4.576074162000054 ], [ -74.142617555999948, 4.577316764000045 ], [ -74.144839504999936, 4.573010682000074 ], [ -74.146508578999942, 4.574795290000054 ], [ -74.147447324999916, 4.573743683000089 ], [ -74.147058125999934, 4.57649422500009 ], [ -74.148355203999927, 4.578080168000042 ], [ -74.14871701699991, 4.576470226000083 ], [ -74.149990242999934, 4.578326785000058 ], [ -74.149314335999918, 4.58145408900009 ], [ -74.147215859999903, 4.581947291000063 ], [ -74.148421532999919, 4.583309790000044 ], [ -74.151114269999937, 4.582574923000038 ], [ -74.150591297999938, 4.58452116400008 ], [ -74.152155056999902, 4.585407672000088 ], [ -74.150494796999908, 4.587985612000068 ], [ -74.152647900999909, 4.588696558000038 ], [ -74.15175791799993, 4.587417471000037 ], [ -74.153069738999932, 4.586379134000083 ], [ -74.153321123999945, 4.587904404000085 ], [ -74.156956504999926, 4.588703541000086 ], [ -74.15425967099992, 4.591257839000093 ], [ -74.151388501999918, 4.59140020600006 ], [ -74.152054617999909, 4.593044121000048 ], [ -74.15418739699993, 4.592856341000072 ], [ -74.152263702999903, 4.595686897000064 ], [ -74.137766183999929, 4.594885111000053 ] ] ] } },
{ "type": "Feature", "properties": { "LocNombre": "RAFAEL URIBE URIBE", "LocCodigo": "18" }, "geometry": { "type": "Polygon", "coordinates": [ [ [ -74.128030733999935, 4.592539093000084 ], [ -74.124471423999921, 4.589959367000063 ], [ -74.116863210999952, 4.58844715500004 ], [ -74.108882310999945, 4.58922836000005 ], [ -74.102660813999933, 4.581372499000054 ], [ -74.094582458999923, 4.575796995000076 ], [ -74.106271675999949, 4.563896818000046 ], [ -74.101761542999952, 4.555905401000075 ], [ -74.103179346999923, 4.546926963000089 ], [ -74.102297407999913, 4.545970307000061 ], [ -74.103713219999918, 4.545517970000049 ], [ -74.098148264999907, 4.534945819000086 ], [ -74.100093755999922, 4.536856685000089 ], [ -74.102927645999898, 4.536512966000089 ], [ -74.106612324999901, 4.539468208000073 ], [ -74.108796323999911, 4.539359590000061 ], [ -74.1123824149999, 4.541682810000054 ], [ -74.112567497999919, 4.540377108000087 ], [ -74.116328938999914, 4.540643765000084 ], [ -74.121148080999944, 4.545429557000091 ], [ -74.121572730999901, 4.556171378000045 ], [ -74.126632981999933, 4.566491781000082 ], [ -74.125255797999898, 4.569567335000045 ], [ -74.130875114999924, 4.585899686000062 ], [ -74.128609744999949, 4.586644792000072 ], [ -74.128030733999935, 4.592539093000084 ] ] ] } },
{ "type": "Feature", "properties": { "LocNombre": "CANDELARIA", "LocCodigo": "17" }, "geometry": { "type": "Polygon", "coordinates": [ [ [ -74.0662087259999, 4.603171742000086 ], [ -74.062314398999945, 4.603264548000084 ], [ -74.059261305999939, 4.601382841000088 ], [ -74.065044788999899, 4.599056393000069 ], [ -74.064711727999907, 4.597414685000047 ], [ -74.06636874599991, 4.597285101000068 ], [ -74.068290152999907, 4.593576145000043 ], [ -74.068321463999951, 4.589936039000065 ], [ -74.070579117999898, 4.59145656000004 ], [ -74.072782957999948, 4.588988740000048 ], [ -74.080629093999903, 4.591689828000085 ], [ -74.081444634999912, 4.594588259000091 ], [ -74.076698344999897, 4.602111298000068 ], [ -74.07106740699993, 4.600609333000079 ], [ -74.0662087259999, 4.603171742000086 ] ] ] } },
{ "type": "Feature", "properties": { "LocNombre": "BARRIOS UNIDOS", "LocCodigo": "12" }, "geometry": { "type": "Polygon", "coordinates": [ [ [ -74.057247031999907, 4.686836296000081 ], [ -74.062511288999929, 4.65572753400005 ], [ -74.064634739999917, 4.649647362000053 ], [ -74.084828926999933, 4.654172240000094 ], [ -74.093715416999942, 4.666065227000047 ], [ -74.085178449999944, 4.678943195000045 ], [ -74.07115508499993, 4.68935541400009 ], [ -74.066616975999921, 4.689361715000075 ], [ -74.057247031999907, 4.686836296000081 ] ] ] } },
{ "type": "Feature", "properties": { "LocNombre": "TEUSAQUILLO", "LocCodigo": "13" }, "geometry": { "type": "Polygon", "coordinates": [ [ [ -74.093715416999942, 4.666065227000047 ], [ -74.083613208999907, 4.65334628100004 ], [ -74.064634739999917, 4.649647362000053 ], [ -74.069711711999901, 4.621638521000079 ], [ -74.072829116999912, 4.61541733200005 ], [ -74.078828208999937, 4.623891494000077 ], [ -74.091451503999906, 4.625717200000054 ], [ -74.110445215999903, 4.645137208000051 ], [ -74.093715416999942, 4.666065227000047 ] ] ] } },
{ "type": "Feature", "properties": { "LocNombre": "PUENTE ARANDA", "LocCodigo": "16" }, "geometry": { "type": "Polygon", "coordinates": [ [ [ -74.118298639999921, 4.637411585000052 ], [ -74.110445215999903, 4.645137208000051 ], [ -74.091451503999906, 4.625717200000054 ], [ -74.083198946999914, 4.624698289000094 ], [ -74.099120238999944, 4.605019923000043 ], [ -74.107073005999951, 4.598243989000082 ], [ -74.122142906999898, 4.59356224600009 ], [ -74.130754462999903, 4.593353347000061 ], [ -74.137766183999929, 4.594885111000053 ], [ -74.129265398999905, 4.608854531000077 ], [ -74.124502542999949, 4.623924209000052 ], [ -74.118298639999921, 4.637411585000052 ] ] ] } },
{ "type": "Feature", "properties": { "LocNombre": "LOS MARTIRES", "LocCodigo": "14" }, "geometry": { "type": "Polygon", "coordinates": [ [ [ -74.072829116999912, 4.61541733200005 ], [ -74.07670266699995, 4.608079412000052 ], [ -74.089004894999903, 4.591819547000057 ], [ -74.09908454899994, 4.594919370000071 ], [ -74.103204472999948, 4.594661256000052 ], [ -74.107073005999951, 4.598243989000082 ], [ -74.099120238999944, 4.605019923000043 ], [ -74.083198946999914, 4.624698289000094 ], [ -74.078828208999937, 4.623891494000077 ], [ -74.072829116999912, 4.61541733200005 ] ] ] } },
{ "type": "Feature", "properties": { "LocNombre": "SUMAPAZ", "LocCodigo": "20" }, "geometry": { "type": "Polygon", "coordinates": [ [ [ -74.205704573999924, 4.266780010000048 ], [ -74.204944847999911, 4.27606854600009 ], [ -74.201960939999935, 4.282826497000087 ], [ -74.194965519999926, 4.290119657000048 ], [ -74.188228665999929, 4.28293823100006 ], [ -74.185446579999905, 4.281933435000042 ], [ -74.16269647699994, 4.283142381000062 ], [ -74.157957634999946, 4.28534889000008 ], [ -74.137478381999927, 4.30424651800007 ], [ -74.1324045799999, 4.306122763000076 ], [ -74.124398498999938, 4.306656296000085 ], [ -74.127330757999914, 4.304396644000064 ], [ -74.133879283999931, 4.288170346000072 ], [ -74.141796500999931, 4.27872866000007 ], [ -74.143778443999906, 4.269402716000059 ], [ -74.152633454999943, 4.254702294000083 ], [ -74.150958951999939, 4.250272509000069 ], [ -74.145504761999916, 4.245008479000091 ], [ -74.145270421999953, 4.240356850000069 ], [ -74.142684388999953, 4.233725293000077 ], [ -74.136088609999945, 4.228660192000063 ], [ -74.137921001999928, 4.224495377000039 ], [ -74.138949272999923, 4.21482306300004 ], [ -74.136438164999902, 4.210838607000085 ], [ -74.135875495999926, 4.205344577000062 ], [ -74.133498091999911, 4.20468363000009 ], [ -74.131032198999947, 4.197744327000066 ], [ -74.127941550999935, 4.195717133000073 ], [ -74.124467725999921, 4.195392809000055 ], [ -74.125784401999908, 4.187081774000092 ], [ -74.123365505999914, 4.184078683000052 ], [ -74.123545964999948, 4.182276028000047 ], [ -74.121470633999934, 4.180513365000081 ], [ -74.115696419999949, 4.182566695000048 ], [ -74.110529611999937, 4.181313780000039 ], [ -74.111192885999913, 4.178566703000058 ], [ -74.109181728999943, 4.169519666000042 ], [ -74.112711220999927, 4.164249175000066 ], [ -74.112432522999939, 4.161487811000086 ], [ -74.114815173999943, 4.156623264000075 ], [ -74.114402860999917, 4.142711509000094 ], [ -74.116893964999917, 4.13987091000007 ], [ -74.11783095699991, 4.136319509000089 ], [ -74.105591345999926, 4.129831922000051 ], [ -74.099420310999903, 4.123551311000085 ], [ -74.095006256999909, 4.122196225000039 ], [ -74.089673822999941, 4.122565355000063 ], [ -74.096028959999899, 4.116891736000071 ], [ -74.09889679999992, 4.108467561000055 ], [ -74.100830773999917, 4.106443367000054 ], [ -74.104309171999944, 4.105494399000065 ], [ -74.108128064999903, 4.102518300000042 ], [ -74.118217103999939, 4.100307972000053 ], [ -74.119545043999949, 4.097975797000061 ], [ -74.121676367999953, 4.097985471000072 ], [ -74.121977990999937, 4.096632928000076 ], [ -74.127089715999944, 4.094785597000055 ], [ -74.129731978999928, 4.091839872000094 ], [ -74.132589881999934, 4.079295195000043 ], [ -74.127864427999953, 4.072931206000078 ], [ -74.127525791999915, 4.069987670000046 ], [ -74.126051152999935, 4.069225481000046 ], [ -74.12472985799991, 4.057093706000046 ], [ -74.126378405999901, 4.054560958000081 ], [ -74.128116834999901, 4.045306081000092 ], [ -74.132799929999919, 4.03530530800009 ], [ -74.137449161999939, 4.030930863000037 ], [ -74.137911448999944, 4.027407566000079 ], [ -74.143127296999921, 4.020651326000063 ], [ -74.146810555999934, 4.018312752000043 ], [ -74.150263079999945, 4.004775112000061 ], [ -74.15264789999992, 4.006545736000078 ], [ -74.154052607999915, 4.013654727000073 ], [ -74.157316723999941, 4.015316501000086 ], [ -74.158897579999916, 4.017718267000078 ], [ -74.169221011999923, 4.015327981000041 ], [ -74.175523809999902, 4.015975213000047 ], [ -74.182885516999931, 4.008260358000086 ], [ -74.190550430999906, 4.012076092000086 ], [ -74.19484906699995, 4.015784782000082 ], [ -74.201155996999944, 4.013508882000053 ], [ -74.204798546999939, 4.014208337000071 ], [ -74.209736810999914, 4.011495207000053 ], [ -74.213803316999929, 4.012963531000082 ], [ -74.217526962999898, 4.010278069000037 ], [ -74.217801037999948, 4.007519407000075 ], [ -74.229467049999926, 3.99377484200005 ], [ -74.233249452999928, 3.981978474000073 ], [ -74.233200951999947, 3.978201071000058 ], [ -74.237677909999945, 3.973233743000094 ], [ -74.24420620099994, 3.955410909000079 ], [ -74.24642788999995, 3.952447155000073 ], [ -74.251178274999916, 3.949718130000065 ], [ -74.260056884999926, 3.948662365000075 ], [ -74.253948652999952, 3.947006508000072 ], [ -74.253008583999929, 3.945476135000092 ], [ -74.2577020089999, 3.942666831000054 ], [ -74.256477722999932, 3.928669078000041 ], [ -74.264842566999903, 3.929441882000049 ], [ -74.273324215999935, 3.925296407000076 ], [ -74.276072085999942, 3.910552947000042 ], [ -74.286563927999907, 3.893807804000062 ], [ -74.296215387999951, 3.884543127000086 ], [ -74.297869587999912, 3.881080638000071 ], [ -74.30675591499994, 3.885108808000041 ], [ -74.309670411999946, 3.888501713000039 ], [ -74.316282162999926, 3.880320732000087 ], [ -74.315610098999912, 3.876503254000056 ], [ -74.313598813999931, 3.874141986000041 ], [ -74.314622063999934, 3.869559172000038 ], [ -74.313303184999938, 3.863983269000073 ], [ -74.309225215999902, 3.859662165000088 ], [ -74.305056920999903, 3.851243527000065 ], [ -74.308121422999932, 3.841684916000077 ], [ -74.299709461999953, 3.839107801000068 ], [ -74.295010972999933, 3.830565805000049 ], [ -74.296685804999925, 3.820368668000071 ], [ -74.298964790999946, 3.818604270000094 ], [ -74.30730206699991, 3.819101411000076 ], [ -74.318312203999938, 3.815341825000075 ], [ -74.319952848999947, 3.825428963000093 ], [ -74.328284273999941, 3.828000502000066 ], [ -74.329828203999909, 3.823537431000091 ], [ -74.333420396999941, 3.822314862000042 ], [ -74.334615028999906, 3.818787875000055 ], [ -74.336349107999922, 3.817937456000038 ], [ -74.337314499999934, 3.814428477000092 ], [ -74.339799606999918, 3.811751249000054 ], [ -74.343903575999946, 3.813855045000082 ], [ -74.349672532999932, 3.809262564000051 ], [ -74.355211240999949, 3.808285026000078 ], [ -74.353558628999906, 3.806072083000061 ], [ -74.353921976999914, 3.800679862000038 ], [ -74.358817540999951, 3.79798659100004 ], [ -74.364651867999953, 3.788291859000083 ], [ -74.368889793999926, 3.78950971200004 ], [ -74.373094704999914, 3.78725776400006 ], [ -74.375884341999949, 3.782379481000078 ], [ -74.375176489999944, 3.778913407000061 ], [ -74.376590697999916, 3.775565327000038 ], [ -74.380780413999901, 3.777206618000093 ], [ -74.392808674999912, 3.770792286000074 ], [ -74.386441174999902, 3.761699646000068 ], [ -74.38582555499994, 3.754432009000084 ], [ -74.389174949999926, 3.751304044000051 ], [ -74.393652970999938, 3.754565368000044 ], [ -74.397800438999923, 3.752798092000091 ], [ -74.397081434999905, 3.745521633000067 ], [ -74.399412219999931, 3.742694592000078 ], [ -74.400750451999897, 3.738265369000089 ], [ -74.405331417999946, 3.738206141000092 ], [ -74.408061417999932, 3.740658041000074 ], [ -74.416025468999919, 3.742289079000045 ], [ -74.423348293999936, 3.742658503000087 ], [ -74.437293215999944, 3.731030342000054 ], [ -74.446284614999911, 3.738160380000068 ], [ -74.448932821999904, 3.744098277000091 ], [ -74.449637213999949, 3.750452461000066 ], [ -74.443511279999939, 3.758218498000076 ], [ -74.439916884999946, 3.758596614000055 ], [ -74.437545135999926, 3.762398961000088 ], [ -74.432992198999898, 3.765236867000056 ], [ -74.433229867999898, 3.772491159000083 ], [ -74.431713357999911, 3.775864851000051 ], [ -74.432747502999916, 3.779821095000045 ], [ -74.430101690999948, 3.78561310300006 ], [ -74.426823283999909, 3.78639841800009 ], [ -74.425248132999911, 3.785423409000089 ], [ -74.423775638999928, 3.786613799000065 ], [ -74.420531544999903, 3.793232444000068 ], [ -74.417173887999922, 3.794636271000059 ], [ -74.413386257999946, 3.799733100000083 ], [ -74.414286938999908, 3.80126451600006 ], [ -74.413046731999941, 3.804698216000077 ], [ -74.40713966699991, 3.810491972000079 ], [ -74.402892158999919, 3.818089076000092 ], [ -74.396166724999944, 3.82473624000005 ], [ -74.392592294999929, 3.841093056000091 ], [ -74.391113456999904, 3.842272001000083 ], [ -74.390426738999906, 3.850991753000073 ], [ -74.386904698999899, 3.856411380000054 ], [ -74.387438306999911, 3.858705900000075 ], [ -74.385998447999953, 3.862189967000063 ], [ -74.387351822999904, 3.864253602000076 ], [ -74.386040511999909, 3.868663063000042 ], [ -74.383574470999918, 3.869476920000068 ], [ -74.382817153999952, 3.872900224000091 ], [ -74.375395382999898, 3.87667620700006 ], [ -74.373353710999936, 3.879772169000091 ], [ -74.368017861999931, 3.895623567000086 ], [ -74.363974235999933, 3.901815231000057 ], [ -74.36354721999993, 3.907929511000077 ], [ -74.361382169999899, 3.909600798000042 ], [ -74.359821968999938, 3.914039546000083 ], [ -74.360751942999912, 3.91774021000009 ], [ -74.354883041999926, 3.940989221000052 ], [ -74.354753301999949, 3.943795027000078 ], [ -74.356739313999924, 3.946953826000083 ], [ -74.355862129999934, 3.952186919000042 ], [ -74.357003649999911, 3.961217176000048 ], [ -74.355628789999912, 3.963942488000043 ], [ -74.356748807999907, 3.970331367000085 ], [ -74.3635927119999, 3.980493406000051 ], [ -74.369717960999935, 3.982597127000076 ], [ -74.374511627999937, 3.986780668000051 ], [ -74.371120262999909, 3.990729995000038 ], [ -74.370425331999911, 3.99522392700004 ], [ -74.366840321999916, 4.002417372000082 ], [ -74.364098443999922, 4.00493076500004 ], [ -74.362895164999941, 4.009454170000083 ], [ -74.36481737899993, 4.033132741000088 ], [ -74.36659889799995, 4.036231856000086 ], [ -74.361639849999904, 4.048152451000078 ], [ -74.355273786999931, 4.051974470000062 ], [ -74.351119444999938, 4.057683975000089 ], [ -74.350481885999898, 4.061262600000077 ], [ -74.351623808999932, 4.067494443000044 ], [ -74.350062254999898, 4.071766869000044 ], [ -74.350929037999947, 4.075200266000081 ], [ -74.345174718999942, 4.088369881000062 ], [ -74.345041316999925, 4.094156060000046 ], [ -74.34203191499995, 4.098945970000045 ], [ -74.343027518999918, 4.10135491300008 ], [ -74.33958042799992, 4.103262682000093 ], [ -74.339498518999903, 4.10513719700009 ], [ -74.335401341999898, 4.110013321000054 ], [ -74.335110709999924, 4.113730951000093 ], [ -74.330845465999914, 4.11964099100004 ], [ -74.3295966579999, 4.124728471000083 ], [ -74.33079620399991, 4.129250502000048 ], [ -74.330049874999929, 4.130883289000053 ], [ -74.319175003999931, 4.12571739200007 ], [ -74.306290315999945, 4.110895390000053 ], [ -74.299943165999935, 4.105602591000093 ], [ -74.280156953999949, 4.102057953000042 ], [ -74.273353749999899, 4.099125693000076 ], [ -74.268869937999909, 4.094088319000093 ], [ -74.263949302999947, 4.091240482000046 ], [ -74.258494707999944, 4.091722721000053 ], [ -74.251917260999903, 4.102076719000081 ], [ -74.245809618999942, 4.102874670000062 ], [ -74.246424320999949, 4.114160437000066 ], [ -74.242871835999949, 4.133664692000082 ], [ -74.24562233599994, 4.140868541000088 ], [ -74.242968280999946, 4.152606160000062 ], [ -74.242927256999906, 4.162798274000068 ], [ -74.240052492999951, 4.172722793000048 ], [ -74.241243795999935, 4.180993956000066 ], [ -74.24021807999992, 4.186464848000071 ], [ -74.244671841999946, 4.189326187000063 ], [ -74.244501009999908, 4.19491845500005 ], [ -74.242532440999923, 4.197928070000046 ], [ -74.237400773999923, 4.196457938000037 ], [ -74.231464755999923, 4.217282427000043 ], [ -74.228113815999905, 4.221995814000081 ], [ -74.224490252999942, 4.222268875000054 ], [ -74.219560531999946, 4.226488582000059 ], [ -74.218755702999943, 4.232929987000091 ], [ -74.216207488999942, 4.236970281000083 ], [ -74.206292066999936, 4.241893710000056 ], [ -74.20886545399992, 4.246589229000051 ], [ -74.205016298999908, 4.252933270000085 ], [ -74.20641801599993, 4.26220384700008 ], [ -74.207614427999943, 4.263597074000074 ], [ -74.205704573999924, 4.266780010000048 ] ] ] } },
{ "type": "Feature", "properties": { "LocNombre": "USAQUEN", "LocCodigo": "01" }, "geometry": { "type": "Polygon", "coordinates": [ [ [ -74.01116193799993, 4.664585312000042 ], [ -74.01212901699995, 4.666231463000088 ], [ -74.01446, 4.666415236000091 ], [ -74.013570831999914, 4.669450852000068 ], [ -74.018974725999954, 4.673849658000051 ], [ -74.023943781999947, 4.675839898000049 ], [ -74.030505577999918, 4.675580496000066 ], [ -74.031443028999945, 4.67733009300008 ], [ -74.048361385999897, 4.684975294000083 ], [ -74.057247031999907, 4.686836296000081 ], [ -74.035006259999932, 4.823139531000038 ], [ -74.033597785999916, 4.825841291000074 ], [ -74.029816756999935, 4.823158707000061 ], [ -74.025704674999929, 4.823118355000076 ], [ -74.024089469999922, 4.821926479000069 ], [ -74.005600488999903, 4.821690076000039 ], [ -74.0035849759999, 4.818559122000067 ], [ -74.004959451999923, 4.81026100400004 ], [ -74.000407926999912, 4.805567857000085 ], [ -74.001287590999937, 4.802466431000084 ], [ -74.006071065999947, 4.797358523000071 ], [ -74.012793526999928, 4.797900818000073 ], [ -74.014388271999906, 4.795148912000059 ], [ -74.01655695799991, 4.786456284000053 ], [ -74.015715303999912, 4.776038982000046 ], [ -74.018375733999903, 4.768095325000047 ], [ -74.015962589999901, 4.760361010000054 ], [ -74.012750673999903, 4.759651256000041 ], [ -74.008933527999943, 4.754952158000037 ], [ -74.009746528999926, 4.748040784000068 ], [ -74.007166767999934, 4.742340565000063 ], [ -74.008430195999949, 4.73256792300009 ], [ -74.006700076999948, 4.727379833000043 ], [ -74.009168781999904, 4.718652454000051 ], [ -74.00691158099994, 4.716530048000038 ], [ -74.009946821999904, 4.714726366000093 ], [ -74.012685480999949, 4.701042151000081 ], [ -74.014826326999923, 4.697251834000042 ], [ -74.011349754999912, 4.693937167000058 ], [ -74.012520060999918, 4.691700605000051 ], [ -74.011174989999915, 4.683303562000049 ], [ -74.003635685999939, 4.679510547000064 ], [ -74.001993611999922, 4.675269670000091 ], [ -74.0082358599999, 4.664249064000046 ], [ -74.01116193799993, 4.664585312000042 ] ] ] } },
{ "type": "Feature", "properties": { "LocNombre": "CHAPINERO", "LocCodigo": "02" }, "geometry": { "type": "Polygon", "coordinates": [ [ [ -74.01116193799993, 4.664585312000042 ], [ -74.017161508999948, 4.661951882000039 ], [ -74.02530622799992, 4.663124588000073 ], [ -74.025593116999914, 4.656782 ], [ -74.02880917199991, 4.654267015000073 ], [ -74.028528441999924, 4.648215193000055 ], [ -74.031498768999938, 4.64496605000005 ], [ -74.028718452999954, 4.643022295000037 ], [ -74.021938877999901, 4.64245489800004 ], [ -74.01535317999992, 4.639543294000077 ], [ -74.009339718999911, 4.638805237000042 ], [ -74.010435130999952, 4.630426323000052 ], [ -74.009344698999939, 4.629852026000037 ], [ -74.009809139999902, 4.626713953000092 ], [ -74.007273299999952, 4.625532657000065 ], [ -74.00369287399991, 4.627096225000059 ], [ -73.999376492999943, 4.626906248000068 ], [ -73.993011158999934, 4.630046390000075 ], [ -73.986981194999942, 4.630525640000087 ], [ -73.986959802999934, 4.627493541000092 ], [ -73.991953871999897, 4.621483476000037 ], [ -73.99120851899994, 4.617909480000037 ], [ -73.994457090999902, 4.614249512000072 ], [ -74.00367045999991, 4.616518168000084 ], [ -74.007821614999898, 4.615605203000086 ], [ -74.013202210999907, 4.618639302000076 ], [ -74.017865712999935, 4.614471188000039 ], [ -74.021649484999898, 4.613798747000089 ], [ -74.028090278999912, 4.617901705000065 ], [ -74.032384742999909, 4.615522531000067 ], [ -74.031538299999909, 4.617119262000074 ], [ -74.034886685999936, 4.616603450000071 ], [ -74.035866984999927, 4.617544562000091 ], [ -74.039732236999953, 4.613042699000061 ], [ -74.043580561999931, 4.612567038000066 ], [ -74.047494222999944, 4.61619139600009 ], [ -74.049376217999907, 4.621624386000065 ], [ -74.062415657999907, 4.625330169000051 ], [ -74.065165167999908, 4.625058274000082 ], [ -74.068407214999922, 4.628803970000092 ], [ -74.057247031999907, 4.686836296000081 ], [ -74.048361385999897, 4.684975294000083 ], [ -74.031443028999945, 4.67733009300008 ], [ -74.030505577999918, 4.675580496000066 ], [ -74.023943781999947, 4.675839898000049 ], [ -74.018974725999954, 4.673849658000051 ], [ -74.013570831999914, 4.669450852000068 ], [ -74.01446, 4.666415236000091 ], [ -74.01212901699995, 4.666231463000088 ], [ -74.01116193799993, 4.664585312000042 ] ] ] } },
{ "type": "Feature", "properties": { "LocNombre": "SANTA FE", "LocCodigo": "03" }, "geometry": { "type": "Polygon", "coordinates": [ [ [ -73.994457089999912, 4.614249513000061 ], [ -73.994485113999929, 4.609616891000087 ], [ -73.996613955999919, 4.606263449000039 ], [ -73.993739863999906, 4.600524035000092 ], [ -73.999214335999909, 4.592639528000063 ], [ -74.002819700999908, 4.592169825000042 ], [ -74.001596822999943, 4.589219315000094 ], [ -74.003738256999952, 4.587116543000093 ], [ -74.004591949999906, 4.580863612000087 ], [ -74.006091764999951, 4.578617336000093 ], [ -74.004445555999951, 4.573781101000066 ], [ -74.006839147999926, 4.565489238000055 ], [ -74.006845468999927, 4.55931077300005 ], [ -74.018104007999909, 4.56033225200008 ], [ -74.020999943999925, 4.559264300000052 ], [ -74.022374200999934, 4.556160627000054 ], [ -74.02400151799992, 4.555751886000053 ], [ -74.029002091999928, 4.558300133000046 ], [ -74.02932285199995, 4.562040486000058 ], [ -74.032487121999907, 4.567457774000047 ], [ -74.031667243999948, 4.570644927000046 ], [ -74.033699250999916, 4.572474986000088 ], [ -74.036140778999936, 4.571160746000089 ], [ -74.03695081099994, 4.572246521000068 ], [ -74.043633022999927, 4.571925137000051 ], [ -74.048948492999898, 4.573540845000082 ], [ -74.060709926999948, 4.579281839000089 ], [ -74.066212477999898, 4.58359678700009 ], [ -74.069997793999903, 4.576968624000074 ], [ -74.070463590999907, 4.577759490000062 ], [ -74.071578616999943, 4.576544869000088 ], [ -74.072133393999934, 4.577739272000088 ], [ -74.074028136999914, 4.576267392000091 ], [ -74.08078624399991, 4.58582233900006 ], [ -74.089004894999903, 4.591819547000057 ], [ -74.075933641999939, 4.60933736800007 ], [ -74.069892089999939, 4.621081909000054 ], [ -74.068407214999922, 4.628803970000092 ], [ -74.065165167999908, 4.625058274000082 ], [ -74.062415657999907, 4.625330169000051 ], [ -74.049376217999907, 4.621624386000065 ], [ -74.047494222999944, 4.61619139600009 ], [ -74.043580561999931, 4.612567038000066 ], [ -74.039732236999953, 4.613042699000061 ], [ -74.035866984999927, 4.617544562000091 ], [ -74.034886685999936, 4.616603450000071 ], [ -74.031538299999909, 4.617119262000074 ], [ -74.032384742999909, 4.615522531000067 ], [ -74.028090278999912, 4.617901705000065 ], [ -74.021649484999898, 4.613798747000089 ], [ -74.017865712999935, 4.614471188000039 ], [ -74.013202210999907, 4.618639302000076 ], [ -74.007821614999898, 4.615605203000086 ], [ -74.00367045999991, 4.616518168000084 ], [ -73.994457089999912, 4.614249513000061 ] ], [ [ -74.062314398999945, 4.603264548000084 ], [ -74.071111959999939, 4.600606528000071 ], [ -74.076698344999897, 4.602111298000068 ], [ -74.081444634999912, 4.594588259000091 ], [ -74.080626330999905, 4.591686388000085 ], [ -74.0727783399999, 4.588988083000061 ], [ -74.070579117999898, 4.59145656000004 ], [ -74.068321463999951, 4.589936039000065 ], [ -74.068290152999907, 4.593576145000043 ], [ -74.06636874599991, 4.597285101000068 ], [ -74.064711727999907, 4.597414685000047 ], [ -74.065047703999937, 4.599052695000069 ], [ -74.059252639999897, 4.601460293000059 ], [ -74.062314398999945, 4.603264548000084 ] ] ] } },
{ "type": "Feature", "properties": { "LocNombre": "SAN CRISTOBAL", "LocCodigo": "04" }, "geometry": { "type": "Polygon", "coordinates": [ [ [ -74.02932285199995, 4.562040486000058 ], [ -74.029431597999917, 4.547525023000048 ], [ -74.031627917999913, 4.544219990000045 ], [ -74.031888041999935, 4.539429680000069 ], [ -74.035640960999899, 4.535582171000044 ], [ -74.038746483999944, 4.527343897000094 ], [ -74.042492825999943, 4.510554146000061 ], [ -74.045744087999935, 4.510068905000082 ], [ -74.050670922999927, 4.511417280000046 ], [ -74.055967912999904, 4.508321126000055 ], [ -74.061447436999913, 4.511774495000054 ], [ -74.068477831999928, 4.509978415000091 ], [ -74.068948655999918, 4.511922219000041 ], [ -74.070500738999897, 4.51162541900004 ], [ -74.070311648999905, 4.513664903000063 ], [ -74.071929094999916, 4.515967404000094 ], [ -74.068568759999948, 4.528594621000082 ], [ -74.073836540999935, 4.529274953000083 ], [ -74.078699618999906, 4.527012624000065 ], [ -74.07651524399995, 4.531847443000061 ], [ -74.077739132999909, 4.532398166000064 ], [ -74.079290514999911, 4.530059053000059 ], [ -74.079689504999919, 4.532078899000055 ], [ -74.081725436999932, 4.530232329000057 ], [ -74.080173846999912, 4.526546042000064 ], [ -74.082849360999944, 4.527766568000061 ], [ -74.08782035899992, 4.520647734000079 ], [ -74.081891817999917, 4.517817601000047 ], [ -74.091070694999928, 4.519684044000087 ], [ -74.089555162999943, 4.51709568800004 ], [ -74.094913454999926, 4.517272346000084 ], [ -74.0934248289999, 4.523375814000076 ], [ -74.095776642999908, 4.537998435000077 ], [ -74.096998501999906, 4.539907842000048 ], [ -74.09830605399992, 4.539378921000093 ], [ -74.097807171999932, 4.541399984000066 ], [ -74.099750336999932, 4.544528640000067 ], [ -74.103179346999923, 4.546926963000089 ], [ -74.101761542999952, 4.555905401000075 ], [ -74.106271675999949, 4.563896818000046 ], [ -74.094582458999923, 4.575796995000076 ], [ -74.084930867999901, 4.589319823000039 ], [ -74.08078624399991, 4.58582233900006 ], [ -74.074028136999914, 4.576267392000091 ], [ -74.072133393999934, 4.577739272000088 ], [ -74.071578616999943, 4.576544869000088 ], [ -74.070463590999907, 4.577759490000062 ], [ -74.069997793999903, 4.576968624000074 ], [ -74.066212477999898, 4.58359678700009 ], [ -74.060709926999948, 4.579281839000089 ], [ -74.048948492999898, 4.573540845000082 ], [ -74.043633022999927, 4.571925137000051 ], [ -74.03695081099994, 4.572246521000068 ], [ -74.036140778999936, 4.571160746000089 ], [ -74.033699250999916, 4.572474986000088 ], [ -74.031667243999948, 4.570644927000046 ], [ -74.032487121999907, 4.567457774000047 ], [ -74.02932285199995, 4.562040486000058 ] ] ] } },
{ "type": "Feature", "properties": { "LocNombre": "USME", "LocCodigo": "05" }, "geometry": { "type": "Polygon", "coordinates": [ [ [ -74.055967912999904, 4.508321126000055 ], [ -74.059210300999951, 4.497112746000084 ], [ -74.065097772999934, 4.486490672000059 ], [ -74.068925258999911, 4.486874880000073 ], [ -74.07533746699994, 4.484577727000044 ], [ -74.076141084999904, 4.473560364000093 ], [ -74.075082386999952, 4.469382096000061 ], [ -74.077042413999948, 4.465927238000063 ], [ -74.076884729999904, 4.461796286000038 ], [ -74.078234650999946, 4.460864 ], [ -74.078104760999906, 4.461898920000067 ], [ -74.079617083999949, 4.461710329000084 ], [ -74.081398675999935, 4.458159970000054 ], [ -74.084583361999933, 4.456746409000061 ], [ -74.090066637999939, 4.459119229000066 ], [ -74.093217584999934, 4.456027443000039 ], [ -74.103279172999919, 4.452336375000073 ], [ -74.105791749999923, 4.44637498700007 ], [ -74.109113792999949, 4.443214351000051 ], [ -74.112037716999907, 4.435334327000078 ], [ -74.113058908999903, 4.416113576000043 ], [ -74.114389264999943, 4.413158629000066 ], [ -74.113152025999909, 4.409561468000049 ], [ -74.114716460999944, 4.406102580000038 ], [ -74.114667543999929, 4.397694830000091 ], [ -74.113076479999904, 4.394320924000056 ], [ -74.113774754999952, 4.386503221000055 ], [ -74.111218687999951, 4.38594127500005 ], [ -74.105052667999928, 4.378568355000084 ], [ -74.098536663999937, 4.378165463000073 ], [ -74.098680502999912, 4.37419079600005 ], [ -74.095258259999923, 4.369911316000071 ], [ -74.094449828999927, 4.364212375000079 ], [ -74.097761194999919, 4.35737485900006 ], [ -74.097123025999906, 4.354390682000087 ], [ -74.098888935999923, 4.344969725000055 ], [ -74.102428220999911, 4.33896844800006 ], [ -74.105281649999938, 4.336769950000075 ], [ -74.104301515999907, 4.332817803000069 ], [ -74.106956785999898, 4.325035022000066 ], [ -74.111045937999904, 4.323814021000089 ], [ -74.112032897999939, 4.320286759000055 ], [ -74.114332963999914, 4.31813601500005 ], [ -74.114572186999908, 4.313580370000068 ], [ -74.119084088999898, 4.311388228000055 ], [ -74.124398498999938, 4.306656296000085 ], [ -74.1324045799999, 4.306122763000076 ], [ -74.137478381999927, 4.30424651800007 ], [ -74.160491174999947, 4.28371577200005 ], [ -74.185446579999905, 4.281933435000042 ], [ -74.188228665999929, 4.28293823100006 ], [ -74.194965519999926, 4.290119657000048 ], [ -74.201960939999935, 4.282826497000087 ], [ -74.204944847999911, 4.27606854600009 ], [ -74.205844885999909, 4.269664100000057 ], [ -74.212236340999937, 4.273458158000039 ], [ -74.216192043999911, 4.273033614000042 ], [ -74.216716667999947, 4.276782131000061 ], [ -74.221137146999922, 4.282170224000083 ], [ -74.216119950999939, 4.286849246000088 ], [ -74.214321563999931, 4.303973173000088 ], [ -74.218453573999909, 4.327287237000064 ], [ -74.217978868999921, 4.335225342000058 ], [ -74.219798250999929, 4.340237061000039 ], [ -74.221169972999917, 4.36401740000008 ], [ -74.21719836099993, 4.366989219000061 ], [ -74.212198980999915, 4.374250895000046 ], [ -74.214212801999906, 4.376370232000056 ], [ -74.210782725999934, 4.382079954000062 ], [ -74.210924531999922, 4.386906730000078 ], [ -74.202953615999945, 4.38611865900009 ], [ -74.195089797999913, 4.387137357000086 ], [ -74.181546270999945, 4.383661868000047 ], [ -74.180236365999917, 4.383918871000049 ], [ -74.177271129999951, 4.388561009000057 ], [ -74.167811271999938, 4.385188135000078 ], [ -74.1626926859999, 4.389605548000077 ], [ -74.158591324999918, 4.39016214600008 ], [ -74.151212238999904, 4.387227567000082 ], [ -74.142723777999947, 4.387767188000055 ], [ -74.141290756999922, 4.39158722600007 ], [ -74.14427158399991, 4.402579002000039 ], [ -74.143310577999898, 4.408269244000053 ], [ -74.145044130999906, 4.415148197000065 ], [ -74.14374154099994, 4.420041635000075 ], [ -74.144810911999912, 4.421698560000038 ], [ -74.143851921999953, 4.432967541000039 ], [ -74.142583763999937, 4.434020396000051 ], [ -74.144240108999952, 4.448276537000083 ], [ -74.139511900999935, 4.458007456000075 ], [ -74.137644308999938, 4.463792195000053 ], [ -74.138260529999911, 4.465818780000063 ], [ -74.136803253999915, 4.466240833000086 ], [ -74.130312520999951, 4.476370672000087 ], [ -74.128418562999912, 4.475290974000075 ], [ -74.124528218999899, 4.479113451000046 ], [ -74.121770960999925, 4.484234812000068 ], [ -74.12042521199993, 4.49080361700004 ], [ -74.123121094999931, 4.491505504000088 ], [ -74.121349194999937, 4.492998250000085 ], [ -74.122738961999914, 4.49969886000008 ], [ -74.125598970999931, 4.501797398000065 ], [ -74.126845114999924, 4.501319849000083 ], [ -74.128464974999929, 4.504542031000085 ], [ -74.126737325999898, 4.506211804000088 ], [ -74.127312187999905, 4.510692523000046 ], [ -74.125610303999906, 4.520161511000083 ], [ -74.1290023439999, 4.52442646500009 ], [ -74.12478656299993, 4.52758551900007 ], [ -74.123213275999944, 4.527459055000065 ], [ -74.123090451999929, 4.529202478000059 ], [ -74.124854515999914, 4.544076122000092 ], [ -74.126085856999907, 4.544822994000072 ], [ -74.121148080999944, 4.545429557000091 ], [ -74.116328938999914, 4.540643765000084 ], [ -74.112567497999919, 4.540377108000087 ], [ -74.1123824149999, 4.541682810000054 ], [ -74.108796323999911, 4.539359590000061 ], [ -74.106612324999901, 4.539468208000073 ], [ -74.102927645999898, 4.536512966000089 ], [ -74.100093755999922, 4.536856685000089 ], [ -74.098148264999907, 4.534945819000086 ], [ -74.103713219999918, 4.545517970000049 ], [ -74.100454713999909, 4.545206937000046 ], [ -74.097807171999932, 4.541399984000066 ], [ -74.09830605399992, 4.539378921000093 ], [ -74.096998501999906, 4.539907842000048 ], [ -74.095776642999908, 4.537998435000077 ], [ -74.0934248289999, 4.523375814000076 ], [ -74.094464929999901, 4.516945999000086 ], [ -74.089555162999943, 4.51709568800004 ], [ -74.091070694999928, 4.519684044000087 ], [ -74.081891817999917, 4.517817601000047 ], [ -74.08782035899992, 4.520647734000079 ], [ -74.082849360999944, 4.527766568000061 ], [ -74.080173846999912, 4.526546042000064 ], [ -74.081875318999948, 4.529604665000079 ], [ -74.079689504999919, 4.532078899000055 ], [ -74.079338358999905, 4.530040246000056 ], [ -74.078375905999906, 4.532270570000094 ], [ -74.076513468999906, 4.531902534000039 ], [ -74.078908242999944, 4.52780693200009 ], [ -74.078699618999906, 4.527012624000065 ], [ -74.073891327999945, 4.529265258000066 ], [ -74.069728914999928, 4.529423614000052 ], [ -74.068563419999919, 4.528020993000041 ], [ -74.071910092999929, 4.51834720800008 ], [ -74.070500738999897, 4.51162541900004 ], [ -74.068948655999918, 4.511922219000041 ], [ -74.068376996999916, 4.509954120000089 ], [ -74.061447436999913, 4.511774495000054 ], [ -74.055967912999904, 4.508321126000055 ] ] ] } },
{ "type": "Feature", "properties": { "LocNombre": "CIUDAD BOLIVAR", "LocCodigo": "19" }, "geometry": { "type": "Polygon", "coordinates": [ [ [ -74.210924531999922, 4.386906730000078 ], [ -74.212960242999941, 4.396163896000076 ], [ -74.207777764999946, 4.40526383100007 ], [ -74.208182504999911, 4.407892854000067 ], [ -74.204078735999929, 4.414444352000089 ], [ -74.203421712999898, 4.419375451000064 ], [ -74.20061385899993, 4.422049704000074 ], [ -74.198844141999928, 4.426413639000089 ], [ -74.194239191999941, 4.426767985000083 ], [ -74.194745695999927, 4.434774885000081 ], [ -74.190903906999949, 4.442700933000083 ], [ -74.19051496599991, 4.447214018000068 ], [ -74.186217050999915, 4.452728682000043 ], [ -74.18645003499995, 4.45845040800009 ], [ -74.183087299999897, 4.466782987000045 ], [ -74.182576871999913, 4.480007439000076 ], [ -74.178033117999917, 4.486409742000092 ], [ -74.179258108999932, 4.490254470000082 ], [ -74.178776089999928, 4.496511265000038 ], [ -74.18152822299993, 4.504104432000076 ], [ -74.173393769999905, 4.507847595000044 ], [ -74.176174983999942, 4.512512525000091 ], [ -74.182225186999915, 4.51296211500005 ], [ -74.183676611999942, 4.521469213000046 ], [ -74.183245403999933, 4.527466390000086 ], [ -74.188109504999943, 4.532805980000091 ], [ -74.183958418999907, 4.535668611000062 ], [ -74.177367463999929, 4.537388623000083 ], [ -74.17322119399995, 4.541053448000071 ], [ -74.176379777999898, 4.545790497000041 ], [ -74.173760055999935, 4.551589225000043 ], [ -74.177063454999939, 4.553866803000062 ], [ -74.176384749999897, 4.560490145000074 ], [ -74.178517337999949, 4.570167832000038 ], [ -74.175597084999936, 4.571698945000094 ], [ -74.175295714999947, 4.575390757000093 ], [ -74.177843017999919, 4.577742579000073 ], [ -74.179389459999925, 4.576976546000083 ], [ -74.180915132999928, 4.587880148000067 ], [ -74.183798536999916, 4.596403440000074 ], [ -74.163311197999917, 4.595717125000078 ], [ -74.152160099999946, 4.599758615000042 ], [ -74.149695209999948, 4.59571146400009 ], [ -74.151775070999918, 4.596398968000074 ], [ -74.15418739699993, 4.592856341000072 ], [ -74.152054617999909, 4.593044121000048 ], [ -74.151388501999918, 4.59140020600006 ], [ -74.15425967099992, 4.591257839000093 ], [ -74.156956504999926, 4.588703541000086 ], [ -74.153321123999945, 4.587904404000085 ], [ -74.153069738999932, 4.586379134000083 ], [ -74.15175791799993, 4.587417471000037 ], [ -74.152647900999909, 4.588696558000038 ], [ -74.150494796999908, 4.587985612000068 ], [ -74.152155056999902, 4.585407672000088 ], [ -74.150591297999938, 4.58452116400008 ], [ -74.151114269999937, 4.582574923000038 ], [ -74.148421532999919, 4.583309790000044 ], [ -74.147215859999903, 4.581947291000063 ], [ -74.149314335999918, 4.58145408900009 ], [ -74.149990242999934, 4.578326785000058 ], [ -74.14871701699991, 4.576470226000083 ], [ -74.148355203999927, 4.578080168000042 ], [ -74.147058125999934, 4.57649422500009 ], [ -74.147447324999916, 4.573743683000089 ], [ -74.146508578999942, 4.574795290000054 ], [ -74.144839504999936, 4.573010682000074 ], [ -74.142617555999948, 4.577316764000045 ], [ -74.140961145999938, 4.576074162000054 ], [ -74.143195475999903, 4.572617232000084 ], [ -74.140460454999925, 4.570469039000045 ], [ -74.141709707999951, 4.568845486000043 ], [ -74.14046049399991, 4.568326329000058 ], [ -74.14044901199992, 4.564958417000071 ], [ -74.133877284999926, 4.560712534000061 ], [ -74.133987084999944, 4.55746326600007 ], [ -74.135258321999913, 4.557141269000056 ], [ -74.133191051999916, 4.556218551000086 ], [ -74.133887777999917, 4.555187152000087 ], [ -74.131969191999929, 4.552638315000081 ], [ -74.13224393899992, 4.549917791000041 ], [ -74.127097574999937, 4.549616141000058 ], [ -74.12536366799992, 4.547505709000063 ], [ -74.126304180999909, 4.546122844000081 ], [ -74.126939815999947, 4.547216574000061 ], [ -74.129984382999908, 4.546175374000086 ], [ -74.124906655999951, 4.544215600000086 ], [ -74.124972151999941, 4.53936570500008 ], [ -74.123065788999952, 4.532337507000079 ], [ -74.123213275999944, 4.527459055000065 ], [ -74.12478656299993, 4.52758551900007 ], [ -74.1290023439999, 4.52442646500009 ], [ -74.125610303999906, 4.520161511000083 ], [ -74.127312187999905, 4.510692523000046 ], [ -74.126737325999898, 4.506211804000088 ], [ -74.128468104999911, 4.504572879000079 ], [ -74.126845114999924, 4.501319849000083 ], [ -74.125598970999931, 4.501797398000065 ], [ -74.122738961999914, 4.49969886000008 ], [ -74.121349194999937, 4.492998250000085 ], [ -74.123121094999931, 4.491505504000088 ], [ -74.120422941999948, 4.490887369000063 ], [ -74.121770960999925, 4.484234812000068 ], [ -74.124528218999899, 4.479113451000046 ], [ -74.128418562999912, 4.475290974000075 ], [ -74.130312520999951, 4.476370672000087 ], [ -74.136803253999915, 4.466240833000086 ], [ -74.138260529999911, 4.465818780000063 ], [ -74.137644308999938, 4.463792195000053 ], [ -74.139511900999935, 4.458007456000075 ], [ -74.144240108999952, 4.448276537000083 ], [ -74.142583763999937, 4.434020396000051 ], [ -74.143851921999953, 4.432967541000039 ], [ -74.144810911999912, 4.421698560000038 ], [ -74.14374154099994, 4.420041635000075 ], [ -74.145044130999906, 4.415148197000065 ], [ -74.143310577999898, 4.408269244000053 ], [ -74.144269164999912, 4.40256387800008 ], [ -74.141129583999941, 4.392087742000058 ], [ -74.142723777999947, 4.387767188000055 ], [ -74.147615153999936, 4.386923969000065 ], [ -74.158591324999918, 4.39016214600008 ], [ -74.1626926859999, 4.389605548000077 ], [ -74.167811271999938, 4.385188135000078 ], [ -74.177271129999951, 4.388561009000057 ], [ -74.180236365999917, 4.383918871000049 ], [ -74.181546270999945, 4.383661868000047 ], [ -74.195089797999913, 4.387137357000086 ], [ -74.202953615999945, 4.38611865900009 ], [ -74.210924531999922, 4.386906730000078 ] ] ] } },
{ "type": "Feature", "properties": { "LocNombre": "BOSA", "LocCodigo": "07" }, "geometry": { "type": "Polygon", "coordinates": [ [ [ -74.185665867999944, 4.647046420000038 ], [ -74.177802788999941, 4.629681452000057 ], [ -74.176560666999933, 4.624020032000089 ], [ -74.180104454999935, 4.618485777000046 ], [ -74.185234583999943, 4.618855054000051 ], [ -74.185038645999953, 4.615674936000062 ], [ -74.182752219999941, 4.617124385000068 ], [ -74.182025875999898, 4.614655440000092 ], [ -74.180078778999928, 4.61701043700009 ], [ -74.179498480999939, 4.616428192000058 ], [ -74.181903610999939, 4.614261239000086 ], [ -74.177292277999925, 4.609619429000077 ], [ -74.177379017999897, 4.606393042000093 ], [ -74.178655156999923, 4.605456917000083 ], [ -74.176582720999932, 4.605332343000043 ], [ -74.176112538999917, 4.603623404000075 ], [ -74.177751347999902, 4.601072454000075 ], [ -74.175952847999952, 4.601244403000067 ], [ -74.175540287999922, 4.603424128000086 ], [ -74.172889275999921, 4.603154718000042 ], [ -74.174532341999907, 4.601353343000085 ], [ -74.174008694999941, 4.600169965000077 ], [ -74.170080493999933, 4.600561309000057 ], [ -74.168594051999946, 4.604245139000056 ], [ -74.16314497299993, 4.606342533000088 ], [ -74.15697875099994, 4.604082935000065 ], [ -74.152160099999946, 4.599758615000042 ], [ -74.160680916999922, 4.596193636000066 ], [ -74.165627528999948, 4.595657133000088 ], [ -74.178699476999952, 4.596993215000055 ], [ -74.183944235999945, 4.59638870100008 ], [ -74.20406272799994, 4.600768261000042 ], [ -74.204266582999935, 4.599441433000038 ], [ -74.21830095599995, 4.616228567000064 ], [ -74.218411639999943, 4.617852404000075 ], [ -74.221740233999924, 4.618921640000053 ], [ -74.220811544999947, 4.619969403000084 ], [ -74.222396993999951, 4.621135613000092 ], [ -74.220667520999939, 4.623065704000055 ], [ -74.223581424999907, 4.62547154400005 ], [ -74.222429928999929, 4.629117001000054 ], [ -74.220865844999935, 4.630181277000077 ], [ -74.216293777999908, 4.629705591000061 ], [ -74.215795648999915, 4.631342048000079 ], [ -74.217509449999909, 4.635073565000084 ], [ -74.21469592099993, 4.637268867000046 ], [ -74.215763889999948, 4.640024543000038 ], [ -74.22001784999992, 4.64168271300008 ], [ -74.221294907999948, 4.644058792000067 ], [ -74.215562288999934, 4.644335387000069 ], [ -74.213493147999941, 4.64041117700009 ], [ -74.20701786099994, 4.640646544000049 ], [ -74.205485841999916, 4.642272225000056 ], [ -74.2068090329999, 4.646579247000091 ], [ -74.200886275999949, 4.643836738000061 ], [ -74.202924638999946, 4.646494561000054 ], [ -74.196895012999903, 4.650457859000085 ], [ -74.193554111999902, 4.655149355000049 ], [ -74.186791737999897, 4.651466311000092 ], [ -74.183709537999903, 4.65273477900007 ], [ -74.185665867999944, 4.647046420000038 ] ] ] } },
{ "type": "Feature", "properties": { "LocNombre": "KENNEDY", "LocCodigo": "08" }, "geometry": { "type": "Polygon", "coordinates": [ [ [ -74.185665867999944, 4.647046420000038 ], [ -74.182231282999908, 4.649190830000066 ], [ -74.180076282999948, 4.652619764000065 ], [ -74.172336387999906, 4.657143542000085 ], [ -74.167653899999948, 4.656381716000055 ], [ -74.166207465999946, 4.659875045000092 ], [ -74.164040481999905, 4.658564630000058 ], [ -74.162287911999897, 4.663366415000041 ], [ -74.157079624999938, 4.661530151000079 ], [ -74.154564810999943, 4.664266363000081 ], [ -74.151400972999909, 4.664249058000053 ], [ -74.144804880999914, 4.661227502000088 ], [ -74.141273269999942, 4.662995017000071 ], [ -74.137124785999902, 4.658852248000073 ], [ -74.132316752999941, 4.648894591000044 ], [ -74.129174669999941, 4.648526978000064 ], [ -74.125655103999918, 4.645238392000067 ], [ -74.123812324999903, 4.640868656000066 ], [ -74.118298639999921, 4.637411585000052 ], [ -74.124502542999949, 4.623924209000052 ], [ -74.129265398999905, 4.608854531000077 ], [ -74.137766183999929, 4.594885111000053 ], [ -74.152263702999903, 4.595686897000064 ], [ -74.151254981999898, 4.596568879000074 ], [ -74.149670224999909, 4.595831803000067 ], [ -74.152240541999902, 4.600682903000063 ], [ -74.159136205999914, 4.605313985000066 ], [ -74.162685047999901, 4.606284841000047 ], [ -74.168594051999946, 4.604245139000056 ], [ -74.170080493999933, 4.600561309000057 ], [ -74.174008694999941, 4.600169965000077 ], [ -74.174532341999907, 4.601353343000085 ], [ -74.172889275999921, 4.603154718000042 ], [ -74.175540287999922, 4.603424128000086 ], [ -74.175952847999952, 4.601244403000067 ], [ -74.177751347999902, 4.601072454000075 ], [ -74.176112538999917, 4.603623404000075 ], [ -74.176582720999932, 4.605332343000043 ], [ -74.178655156999923, 4.605456917000083 ], [ -74.177379017999897, 4.606393042000093 ], [ -74.177292277999925, 4.609619429000077 ], [ -74.181903610999939, 4.614261239000086 ], [ -74.179498480999939, 4.616428192000058 ], [ -74.180078778999928, 4.61701043700009 ], [ -74.182025875999898, 4.614655440000092 ], [ -74.182752219999941, 4.617124385000068 ], [ -74.185038645999953, 4.615674936000062 ], [ -74.185234583999943, 4.618855054000051 ], [ -74.180104454999935, 4.618485777000046 ], [ -74.176560666999933, 4.624020032000089 ], [ -74.177802788999941, 4.629681452000057 ], [ -74.185665867999944, 4.647046420000038 ] ] ] } },
{ "type": "Feature", "properties": { "LocNombre": "FONTIBON", "LocCodigo": "09" }, "geometry": { "type": "Polygon", "coordinates": [ [ [ -74.157079624999938, 4.661530151000079 ], [ -74.1610568239999, 4.664726596000094 ], [ -74.160683147999919, 4.667118622000089 ], [ -74.168568223999898, 4.668542752000064 ], [ -74.170613093999918, 4.670392538000044 ], [ -74.166438347999929, 4.673266633000082 ], [ -74.16445041399993, 4.671114375000059 ], [ -74.162417616999903, 4.675288282000054 ], [ -74.157598815999904, 4.677403560000073 ], [ -74.156977631999951, 4.679311161000044 ], [ -74.158935303999897, 4.68259725900009 ], [ -74.160064726999906, 4.682956116000071 ], [ -74.162248224999928, 4.68101080100007 ], [ -74.160234148999905, 4.678310106000083 ], [ -74.164551029999927, 4.67567387400004 ], [ -74.165881120999927, 4.67817787000007 ], [ -74.1695069619999, 4.675356673000067 ], [ -74.171001022999917, 4.677176730000042 ], [ -74.171511238999926, 4.674335617000054 ], [ -74.174987825999949, 4.676818475000061 ], [ -74.173686864999922, 4.68261470200008 ], [ -74.167638146999934, 4.688018728000088 ], [ -74.17013372699995, 4.68987646000005 ], [ -74.172372440999936, 4.69437217300009 ], [ -74.169221223999898, 4.700858057000062 ], [ -74.174529518999918, 4.700605172000053 ], [ -74.1770368789999, 4.70258328400007 ], [ -74.161872026999902, 4.705865137000046 ], [ -74.162154499999929, 4.707300416000066 ], [ -74.160351571999911, 4.708176722000076 ], [ -74.156088161999946, 4.708048663000056 ], [ -74.154813469999908, 4.710459578000041 ], [ -74.155469579999931, 4.717982202000087 ], [ -74.120378181999911, 4.692221161000077 ], [ -74.118400273999953, 4.688651400000083 ], [ -74.124650902999917, 4.684803915000089 ], [ -74.120898437999927, 4.681014597000058 ], [ -74.103415758999915, 4.653507285000046 ], [ -74.118298639999921, 4.637411585000052 ], [ -74.123812324999903, 4.640868656000066 ], [ -74.125655103999918, 4.645238392000067 ], [ -74.129174669999941, 4.648526978000064 ], [ -74.132316752999941, 4.648894591000044 ], [ -74.137077982999926, 4.658789536000086 ], [ -74.140944930999922, 4.662840281000058 ], [ -74.144804880999914, 4.661227502000088 ], [ -74.151400972999909, 4.664249058000053 ], [ -74.154564810999943, 4.664266363000081 ], [ -74.157079624999938, 4.661530151000079 ] ] ] } },
{ "type": "Feature", "properties": { "LocNombre": "ENGATIVA", "LocCodigo": "10" }, "geometry": { "type": "Polygon", "coordinates": [ [ [ -74.155469585999924, 4.717982196000094 ], [ -74.156348493999928, 4.717175700000041 ], [ -74.160344215999942, 4.720234077000043 ], [ -74.158560744999932, 4.725168906000079 ], [ -74.15689273299995, 4.725470743000074 ], [ -74.15748990499992, 4.724162190000072 ], [ -74.156534035999925, 4.723470587000065 ], [ -74.1511033889999, 4.722731708000083 ], [ -74.148572003999902, 4.725889174000088 ], [ -74.137394283999924, 4.730725914000061 ], [ -74.135571643999924, 4.728293271000041 ], [ -74.130582554999933, 4.730867107000051 ], [ -74.128607672999919, 4.726743430000056 ], [ -74.126031011999942, 4.729661627000041 ], [ -74.12835206099993, 4.735275297000044 ], [ -74.12665783999995, 4.736677974000088 ], [ -74.127164122999943, 4.739305584000078 ], [ -74.120690259999947, 4.739436806000072 ], [ -74.119649714999923, 4.736823369000092 ], [ -74.1146030459999, 4.73469459800009 ], [ -74.114026337999917, 4.732050743000059 ], [ -74.108684873999948, 4.72742695900007 ], [ -74.104091792999952, 4.72582377100008 ], [ -74.103981918999921, 4.723754510000049 ], [ -74.100467094999942, 4.72139523900006 ], [ -74.099842855999952, 4.717998338000086 ], [ -74.096684456999924, 4.71738001600005 ], [ -74.093350764999911, 4.711359257000083 ], [ -74.090872516999923, 4.710497396000051 ], [ -74.089737321999905, 4.707021839000049 ], [ -74.087988578999898, 4.705654107000043 ], [ -74.088368630999923, 4.698530355000059 ], [ -74.085890327999948, 4.697336139000072 ], [ -74.08467227999995, 4.69437348200006 ], [ -74.080948433999936, 4.693143741000085 ], [ -74.077327791999949, 4.685359689000052 ], [ -74.085178449999944, 4.678943195000045 ], [ -74.089354312999944, 4.671710759000064 ], [ -74.103415758999915, 4.653507285000046 ], [ -74.120898437999927, 4.681014597000058 ], [ -74.124650902999917, 4.684803915000089 ], [ -74.118400273999953, 4.688651400000083 ], [ -74.120378181999911, 4.692221161000077 ], [ -74.155469585999924, 4.717982196000094 ] ] ] } },
{ "type": "Feature", "properties": { "LocNombre": "SUBA", "LocCodigo": "11" }, "geometry": { "type": "Polygon", "coordinates": [ [ [ -74.034497355999918, 4.825469352000084 ], [ -74.057247031999907, 4.686836296000081 ], [ -74.069087158999935, 4.689659400000039 ], [ -74.072749060999911, 4.688753629000075 ], [ -74.077327791999949, 4.685359689000052 ], [ -74.080948433999936, 4.693143741000085 ], [ -74.08467227999995, 4.69437348200006 ], [ -74.085890327999948, 4.697336139000072 ], [ -74.088368630999923, 4.698530355000059 ], [ -74.087988578999898, 4.705654107000043 ], [ -74.089737321999905, 4.707021839000049 ], [ -74.090872516999923, 4.710497396000051 ], [ -74.093350764999911, 4.711359257000083 ], [ -74.096684456999924, 4.71738001600005 ], [ -74.099842855999952, 4.717998338000086 ], [ -74.100467094999942, 4.72139523900006 ], [ -74.103981918999921, 4.723754510000049 ], [ -74.104091792999952, 4.72582377100008 ], [ -74.108684873999948, 4.72742695900007 ], [ -74.114026337999917, 4.732050743000059 ], [ -74.1146030459999, 4.73469459800009 ], [ -74.119649714999923, 4.736823369000092 ], [ -74.120690259999947, 4.739436806000072 ], [ -74.126129618999926, 4.740017823000073 ], [ -74.127379944999916, 4.737305030000073 ], [ -74.128802312999937, 4.737349774000052 ], [ -74.131862303999924, 4.741092746000049 ], [ -74.130066957999929, 4.745918482000093 ], [ -74.125571798999943, 4.747063614000069 ], [ -74.125856706999912, 4.749264637000067 ], [ -74.12757694599992, 4.749312432000067 ], [ -74.127254057999949, 4.750637601000051 ], [ -74.124281047999943, 4.750036359000092 ], [ -74.122680493999951, 4.747264889000064 ], [ -74.125238320999927, 4.753973164000058 ], [ -74.120409673999916, 4.754195864000053 ], [ -74.12123917699995, 4.759818521000057 ], [ -74.116826432999915, 4.761786494000091 ], [ -74.115701934999947, 4.767989245000081 ], [ -74.118299633999925, 4.766779558000053 ], [ -74.114690253999925, 4.770565786000077 ], [ -74.11434463899991, 4.771982697000055 ], [ -74.11660799099991, 4.77204077600004 ], [ -74.113883652999903, 4.778118457000062 ], [ -74.117185645999939, 4.77750343200006 ], [ -74.114345065999942, 4.780061052000065 ], [ -74.117198278999922, 4.780696969000076 ], [ -74.11436683699992, 4.782245450000062 ], [ -74.114751497999919, 4.785638784000071 ], [ -74.112251441999945, 4.784474621000072 ], [ -74.114354048999928, 4.786889538000082 ], [ -74.112949711999931, 4.790229441000065 ], [ -74.110040943999934, 4.790339004000089 ], [ -74.112387930999944, 4.789433747000089 ], [ -74.111622886999953, 4.78720504000006 ], [ -74.108048746999941, 4.788846904000081 ], [ -74.105248443999926, 4.796873996000045 ], [ -74.10317491099994, 4.797417397000061 ], [ -74.103861341999902, 4.795007891000068 ], [ -74.102758755999901, 4.795245370000089 ], [ -74.100709584999947, 4.799114088000067 ], [ -74.09606895099995, 4.799238808000041 ], [ -74.09588406499995, 4.795621505000042 ], [ -74.093502088999912, 4.79089068400009 ], [ -74.087175190999915, 4.796213435000084 ], [ -74.091571277999947, 4.796685689000071 ], [ -74.08859674699994, 4.798171238000066 ], [ -74.088998038999932, 4.801386859000047 ], [ -74.087101204999954, 4.80170052200009 ], [ -74.088476235999906, 4.803308678000064 ], [ -74.079948583999908, 4.808509809000043 ], [ -74.080043124999918, 4.809988863000058 ], [ -74.084682891999933, 4.812117578000084 ], [ -74.083167264999929, 4.814333898000086 ], [ -74.087120205999952, 4.816016784000055 ], [ -74.086565067999913, 4.821029002000046 ], [ -74.083423918999927, 4.822142244000077 ], [ -74.082022747999929, 4.816377404000093 ], [ -74.078952211999933, 4.821114002000058 ], [ -74.080177786999911, 4.82498146100005 ], [ -74.086554443999944, 4.832186169000067 ], [ -74.079600269999901, 4.83568125000005 ], [ -74.074541435999947, 4.836670498000046 ], [ -74.071714930999917, 4.834160018000091 ], [ -74.07074250699992, 4.828398736000054 ], [ -74.06708152899995, 4.827973597000039 ], [ -74.067392019999943, 4.832654507000086 ], [ -74.066307080999934, 4.835099994000075 ], [ -74.064960920999908, 4.834870117000094 ], [ -74.064490764999903, 4.830213601000082 ], [ -74.062995603999923, 4.835599981000087 ], [ -74.060658360999923, 4.827437716000077 ], [ -74.060205907999944, 4.82862523600005 ], [ -74.056018588999905, 4.828853910000078 ], [ -74.053296304999947, 4.833085200000085 ], [ -74.049012408999943, 4.830641572000047 ], [ -74.049963408999929, 4.835167398000067 ], [ -74.047562587999948, 4.830570850000072 ], [ -74.045536202999926, 4.830526327000086 ], [ -74.044145726999943, 4.833000557000048 ], [ -74.04078828899992, 4.826497286000063 ], [ -74.034497355999918, 4.825469352000084 ] ] ] } }
]
}
