{
"type": "FeatureCollection",
"name": "upz_light",
"crs": { "type": "name", "properties": { "name": "urn:ogc:def:crs:OGC:1.3:CRS84" } },
"features": [
{ "type": "Feature", "properties": { "nombre": "COUNTRY CLUB", "codigo_upz": "15", "codigo_loca": "01" }, "geometry": { "type": "Polygon", "coordinates": [ [ [ -74.032615307881258, 4.712743860997748 ], [ -74.032877141340791, 4.703407517471786 ], [ -74.044848444826314, 4.704338711179694 ], [ -74.053904307428382, 4.706744906107342 ], [ -74.051848881438985, 4.718986191648862 ], [ -74.032615307881258, 4.712743860997748 ] ] ] } },
{ "type": "Feature", "properties": { "nombre": "EL PORVENIR", "codigo_upz": "86", "codigo_loca": "07" }, "geometry": { "type": "Polygon", "coordinates": [ [ [ -74.185576912543667, 4.646833095597771 ], [ -74.179949305842072, 4.634606752650372 ], [ -74.195499109922622, 4.628406124671959 ], [ -74.204933568061023, 4.645946924250207 ], [ -74.200886300527714, 4.64383670769166 ], [ -74.202924612922331, 4.646494590900137 ], [ -74.196894984989783, 4.650457874932652 ], [ -74.194266798637969, 4.654944287547371 ], [ -74.192954657260401, 4.655181719423625 ], [ -74.186791721138931, 4.651466327722567 ], [ -74.183709567886879, 4.652734746135474 ], [ -74.185576912543667, 4.646833095597771 ] ] ] } },
{ "type": "Feature", "properties": { "nombre": "TIBABUYES", "codigo_upz": "71", "codigo_loca": "11" }, "geometry": { "type": "Polygon", "coordinates": [ [ [ -74.102758122544429, 4.762431481596337 ], [ -74.106128528398173, 4.747788475125783 ], [ -74.103438116924323, 4.723311538174758 ], [ -74.104091793818498, 4.725823770737752 ], [ -74.108684873002872, 4.727426957955458 ], [ -74.114026337884923, 4.732050742575142 ], [ -74.114603045571428, 4.734694599376975 ], [ -74.119649713806396, 4.73682336867004 ], [ -74.120690260510784, 4.739436804060361 ], [ -74.12612961866806, 4.740017823327792 ], [ -74.127379947815413, 4.737305122540859 ], [ -74.128802348249863, 4.737349806493078 ], [ -74.13198620820215, 4.740284056560932 ], [ -74.130066927454891, 4.745918460290062 ], [ -74.125571835404628, 4.747063620242416 ], [ -74.125856696751029, 4.749264663649805 ], [ -74.12757695309395, 4.749312398163315 ], [ -74.127254082781093, 4.750637581799156 ], [ -74.124281064650461, 4.750036340088451 ], [ -74.122680524040064, 4.747264907164396 ], [ -74.125420092997643, 4.753462474821935 ], [ -74.120244390678025, 4.754402699931562 ], [ -74.121239148835514, 4.759818497298211 ], [ -74.12012763805015, 4.761151055433865 ], [ -74.116825706421608, 4.761789016466495 ], [ -74.116246397750771, 4.763792491100013 ], [ -74.110290388668162, 4.75965992404309 ], [ -74.107613550433811, 4.761391155658106 ], [ -74.105617284847838, 4.765985098981198 ], [ -74.105728451870036, 4.762691010868193 ], [ -74.104555989057488, 4.76339438134931 ], [ -74.102758122544429, 4.762431481596337 ] ] ] } },
{ "type": "Feature", "properties": { "nombre": "MINUTO DE DIOS", "codigo_upz": "29", "codigo_loca": "10" }, "geometry": { "type": "Polygon", "coordinates": [ [ [ -74.096684456539492, 4.717380016286956 ], [ -74.093350763029392, 4.711359257328766 ], [ -74.091038480187052, 4.710677140162807 ], [ -74.087988577599305, 4.705654109705073 ], [ -74.088368629851971, 4.698530356387367 ], [ -74.085431269007628, 4.69653087679836 ], [ -74.089161969402127, 4.695437174324378 ], [ -74.110089667063775, 4.707907289336435 ], [ -74.103431008231837, 4.723308923519854 ], [ -74.100564151817522, 4.721555837379664 ], [ -74.099842856538459, 4.71799833834261 ], [ -74.096684456539492, 4.717380016286956 ] ] ] } },
{ "type": "Feature", "properties": { "nombre": "CORABASTOS", "codigo_upz": "80", "codigo_loca": "08" }, "geometry": { "type": "Polygon", "coordinates": [ [ [ -74.1706446102733, 4.628272565741553 ], [ -74.167872921456038, 4.630272115277906 ], [ -74.156300510623325, 4.640317198313849 ], [ -74.153861601214871, 4.635418308425889 ], [ -74.155421610330336, 4.633668489886399 ], [ -74.155064386937056, 4.631043796560487 ], [ -74.161966055363976, 4.623258716417651 ], [ -74.166002035581243, 4.621042432556888 ], [ -74.1706446102733, 4.628272565741553 ] ] ] } },
{ "type": "Feature", "properties": { "nombre": "CHAPINERO", "codigo_upz": "99", "codigo_loca": "02" }, "geometry": { "type": "Polygon", "coordinates": [ [ [ -74.058146090380191, 4.650705259768496 ], [ -74.061403717181804, 4.645036473528019 ], [ -74.064224721943773, 4.631449617750713 ], [ -74.061850617297196, 4.631040985112207 ], [ -74.061569302053641, 4.626695160141482 ], [ -74.060841559548308, 4.625682081119075 ], [ -74.059291844917126, 4.626294440325345 ], [ -74.057220926447783, 4.624034086101653 ], [ -74.058704829331546, 4.62397122231352 ], [ -74.065200004112512, 4.625074098356261 ], [ -74.068407209744919, 4.628803973501282 ], [ -74.063531350044585, 4.654097385974494 ], [ -74.058146090380191, 4.650705259768496 ] ] ] } },
{ "type": "Feature", "properties": { "nombre": "GUAYMARAL", "codigo_upz": "03", "codigo_loca": "11" }, "geometry": { "type": "Polygon", "coordinates": [ [ [ -74.03501126765822, 4.825525086551626 ], [ -74.038485238668656, 4.799522777151305 ], [ -74.040136954070434, 4.801391174004323 ], [ -74.039253470174231, 4.80430171618235 ], [ -74.040802826136613, 4.807113227660061 ], [ -74.040694281444132, 4.810051087956501 ], [ -74.04437794948376, 4.808411387691464 ], [ -74.056504804635594, 4.813058484207054 ], [ -74.058533766277122, 4.815189811723957 ], [ -74.05755701628101, 4.821939145244838 ], [ -74.055436094729444, 4.821783974333752 ], [ -74.055822351501917, 4.81852906620797 ], [ -74.053912085834412, 4.818311985176408 ], [ -74.052380847444809, 4.828631440836054 ], [ -74.045690431177974, 4.827427184327997 ], [ -74.042453871412249, 4.830660933890743 ], [ -74.040780774195568, 4.826496177962519 ], [ -74.03501126765822, 4.825525086551626 ] ] ] } },
{ "type": "Feature", "properties": { "nombre": "CHICO LAGO", "codigo_upz": "97", "codigo_loca": "02" }, "geometry": { "type": "Polygon", "coordinates": [ [ [ -74.063531350044585, 4.654097385974494 ], [ -74.057247030882877, 4.686836295669481 ], [ -74.0483613830705, 4.684975293710874 ], [ -74.038149039725837, 4.679917744337512 ], [ -74.039643188240575, 4.678155441188173 ], [ -74.04439776523698, 4.68063681652105 ], [ -74.056205921255426, 4.66094824396814 ], [ -74.052927396147695, 4.658821394261749 ], [ -74.057461033267515, 4.651384326168142 ], [ -74.058146090380191, 4.650705259768496 ], [ -74.063531350044585, 4.654097385974494 ] ] ] } },
{ "type": "Feature", "properties": { "nombre": "LA CANDELARIA", "codigo_upz": "94", "codigo_loca": "17" }, "geometry": { "type": "Polygon", "coordinates": [ [ [ -74.081450143870825, 4.59455983100781 ], [ -74.076607163456359, 4.602158692538175 ], [ -74.069614287806516, 4.6007603182571 ], [ -74.064909835631425, 4.603409017229303 ], [ -74.059274502196601, 4.601666917222158 ], [ -74.065047706092358, 4.599052696230929 ], [ -74.064711729731314, 4.597414684386051 ], [ -74.066374937710648, 4.597278464119274 ], [ -74.068291262706694, 4.593573078748016 ], [ -74.068437594308733, 4.589865291095653 ], [ -74.07057911694595, 4.591456560569334 ], [ -74.072633135308294, 4.588980123023539 ], [ -74.07972738293337, 4.591092241537818 ], [ -74.081450143870825, 4.59455983100781 ] ] ] } },
{ "type": "Feature", "properties": { "nombre": "FONTIBON SAN PABLO", "codigo_upz": "76", "codigo_loca": "09" }, "geometry": { "type": "Polygon", "coordinates": [ [ [ -74.145601590635124, 4.690450232084109 ], [ -74.156444855991921, 4.682513558070381 ], [ -74.159733403153737, 4.686986934882554 ], [ -74.170240194649452, 4.695486948946856 ], [ -74.172395328201659, 4.695996915686089 ], [ -74.169269218786084, 4.699315672642277 ], [ -74.169393141488854, 4.701046866369756 ], [ -74.174529471631161, 4.700605136515827 ], [ -74.176997341786389, 4.702784057858663 ], [ -74.165277566609277, 4.705405869111305 ], [ -74.145601590635124, 4.690450232084109 ] ] ] } },
{ "type": "Feature", "properties": { "nombre": "MODELIA", "codigo_upz": "114", "codigo_loca": "09" }, "geometry": { "type": "Polygon", "coordinates": [ [ [ -74.112177954878476, 4.665745440446887 ], [ -74.120693156370947, 4.655852272278683 ], [ -74.134643816464163, 4.670158641299945 ], [ -74.131827227372042, 4.672513904147337 ], [ -74.126806808506572, 4.670523851468089 ], [ -74.121207029774865, 4.677413517936041 ], [ -74.11904879691609, 4.673130974487487 ], [ -74.112177954878476, 4.665745440446887 ] ] ] } },
{ "type": "Feature", "properties": { "nombre": "SAN ISIDRO - PATIOS", "codigo_upz": "89", "codigo_loca": "02" }, "geometry": { "type": "Polygon", "coordinates": [ [ [ -74.021970063479898, 4.662904020632652 ], [ -74.023878441622827, 4.662956706834952 ], [ -74.024033808548282, 4.664716810800241 ], [ -74.022852482438381, 4.665480425255793 ], [ -74.026987016358191, 4.66925966587443 ], [ -74.025635090424274, 4.672260514433202 ], [ -74.024635192589571, 4.671546215885897 ], [ -74.023121200035462, 4.673923307375679 ], [ -74.009784693204125, 4.665429992766859 ], [ -74.010503056969284, 4.663572889599305 ], [ -74.014789143135744, 4.663638365342155 ], [ -74.015843358397447, 4.665424850355656 ], [ -74.017240082555702, 4.663852261594747 ], [ -74.019942485899961, 4.665660666564115 ], [ -74.021970063479898, 4.662904020632652 ] ] ] } },
{ "type": "Feature", "properties": { "nombre": "RESTREPO", "codigo_upz": "38", "codigo_loca": "15" }, "geometry": { "type": "Polygon", "coordinates": [ [ [ -74.089004896290163, 4.591819545953081 ], [ -74.094438144327512, 4.585780165188916 ], [ -74.102494171738599, 4.581260059559199 ], [ -74.108882339725199, 4.589228358789518 ], [ -74.116863246280161, 4.588447180870983 ], [ -74.124471399444118, 4.589959381171018 ], [ -74.130754467073999, 4.593353366512464 ], [ -74.120902416208409, 4.593784479674055 ], [ -74.107073004967546, 4.598243987639957 ], [ -74.103204456185239, 4.594661270510754 ], [ -74.099084549414684, 4.594919370147644 ], [ -74.089004896290163, 4.591819545953081 ] ] ] } },
{ "type": "Feature", "properties": { "nombre": "LA FLORA", "codigo_upz": "52", "codigo_loca": "05" }, "geometry": { "type": "Polygon", "coordinates": [ [ [ -74.082571425114651, 4.497745410198486 ], [ -74.083094409943115, 4.499091991432027 ], [ -74.079489959372793, 4.500412317759793 ], [ -74.078859309048909, 4.499124903052802 ], [ -74.082571425114651, 4.497745410198486 ] ] ] } },
{ "type": "Feature", "properties": { "nombre": "LOURDES", "codigo_upz": "96", "codigo_loca": "03" }, "geometry": { "type": "Polygon", "coordinates": [ [ [ -74.065293000265612, 4.597097940398679 ], [ -74.06637542684571, 4.596464949065824 ], [ -74.06616796417282, 4.593513447523315 ], [ -74.06572271327596, 4.592550508027923 ], [ -74.06393565032289, 4.595472835855393 ], [ -74.064806445723491, 4.593577278664034 ], [ -74.063352840537036, 4.586629091093367 ], [ -74.065908943412509, 4.586749775157736 ], [ -74.065197370614484, 4.584320190104399 ], [ -74.069417637712007, 4.579389487544411 ], [ -74.069997769443447, 4.576968604342942 ], [ -74.07046357527264, 4.577759522135897 ], [ -74.071578642383301, 4.576544835788444 ], [ -74.072133404366539, 4.577739283990604 ], [ -74.074014695680034, 4.576272265094611 ], [ -74.078897261917589, 4.582472669699668 ], [ -74.077112602705952, 4.585749781463377 ], [ -74.077543289373025, 4.587915839540445 ], [ -74.076431727800781, 4.590197338882467 ], [ -74.072523838786424, 4.588993104150186 ], [ -74.07057911694595, 4.591456560569334 ], [ -74.068321464840821, 4.589936039500435 ], [ -74.06829013723906, 4.593576115893026 ], [ -74.066666901841685, 4.596954067880207 ], [ -74.065293000265612, 4.597097940398679 ] ] ] } },
{ "type": "Feature", "properties": { "nombre": "BOSA OCCIDENTAL", "codigo_upz": "84", "codigo_loca": "07" }, "geometry": { "type": "Polygon", "coordinates": [ [ [ -74.207881721765261, 4.623637172109436 ], [ -74.179949305842072, 4.634606752650372 ], [ -74.176560666008527, 4.624020033326826 ], [ -74.180104454514392, 4.618485776874285 ], [ -74.185234583113086, 4.618855053837437 ], [ -74.184785348608429, 4.615625370442975 ], [ -74.188305936538313, 4.612758282372836 ], [ -74.192169420586126, 4.614515903944171 ], [ -74.191593992616063, 4.618313500804573 ], [ -74.194672710368621, 4.618854918704624 ], [ -74.196668944969105, 4.617453681493262 ], [ -74.19808238259202, 4.619783446032827 ], [ -74.198550816692958, 4.617352293918515 ], [ -74.200363009744564, 4.617200836012366 ], [ -74.201884478329973, 4.619341179370647 ], [ -74.204650638296243, 4.616772788337936 ], [ -74.203702797572404, 4.619185898649916 ], [ -74.204453130755383, 4.622346550422177 ], [ -74.206650492038563, 4.620822673580827 ], [ -74.207881721765261, 4.623637172109436 ] ] ] } },
{ "type": "Feature", "properties": { "nombre": "PUENTE ARANDA", "codigo_upz": "111", "codigo_loca": "16" }, "geometry": { "type": "Polygon", "coordinates": [ [ [ -74.110445214289584, 4.645137208441652 ], [ -74.091451503771808, 4.625717199586219 ], [ -74.122414845457342, 4.629032124434762 ], [ -74.119390240133043, 4.636312356255189 ], [ -74.110445214289584, 4.645137208441652 ] ] ] } },
{ "type": "Feature", "properties": { "nombre": "GRANJAS DE TECHO", "codigo_upz": "112", "codigo_loca": "09" }, "geometry": { "type": "Polygon", "coordinates": [ [ [ -74.135101375445274, 4.670629976394488 ], [ -74.110445215190495, 4.645137208441699 ], [ -74.118298639861436, 4.637411585408282 ], [ -74.123812324768352, 4.640868655958237 ], [ -74.125655103745927, 4.645238391995609 ], [ -74.129174670419175, 4.648526977987784 ], [ -74.132316753317141, 4.648894591358249 ], [ -74.137077982721948, 4.658789535506548 ], [ -74.140787345864922, 4.662656240184716 ], [ -74.135101375445274, 4.670629976394488 ] ] ] } },
{ "type": "Feature", "properties": { "nombre": "FONTIBON", "codigo_upz": "75", "codigo_loca": "09" }, "geometry": { "type": "Polygon", "coordinates": [ [ [ -74.145601590635124, 4.690450232084109 ], [ -74.130388462672116, 4.67758866466292 ], [ -74.133383872288704, 4.674673178955565 ], [ -74.140132052646408, 4.663516812896473 ], [ -74.15112153574016, 4.667986732366775 ], [ -74.156444855991921, 4.682513558070381 ], [ -74.145601590635124, 4.690450232084109 ] ] ] } },
{ "type": "Feature", "properties": { "nombre": "TOBERIN", "codigo_upz": "12", "codigo_loca": "01" }, "geometry": { "type": "Polygon", "coordinates": [ [ [ -74.048691975802313, 4.737778412506017 ], [ -74.046676556717514, 4.75134423072007 ], [ -74.031573320709668, 4.748315714388211 ], [ -74.032112563044052, 4.731141545203116 ], [ -74.042818924475668, 4.736501596527385 ], [ -74.048691975802313, 4.737778412506017 ] ] ] } },
{ "type": "Feature", "properties": { "nombre": "SANTA BARBARA", "codigo_upz": "16", "codigo_loca": "01" }, "geometry": { "type": "Polygon", "coordinates": [ [ [ -74.032877141340791, 4.703407517471786 ], [ -74.033121990350594, 4.697424939843533 ], [ -74.035907779325797, 4.691967363345668 ], [ -74.048199295513172, 4.68490026960147 ], [ -74.057247030882877, 4.686836295669481 ], [ -74.053904307428382, 4.706744906107342 ], [ -74.044848444826314, 4.704338711179694 ], [ -74.032877141340791, 4.703407517471786 ] ] ] } },
{ "type": "Feature", "properties": { "nombre": "PATIO BONITO", "codigo_upz": "82", "codigo_loca": "08" }, "geometry": { "type": "Polygon", "coordinates": [ [ [ -74.156306651049618, 4.640578096785211 ], [ -74.170644611174168, 4.628272565741522 ], [ -74.182144474651224, 4.649656593166902 ], [ -74.177513940460329, 4.654241539358489 ], [ -74.166891786230408, 4.639892880261015 ], [ -74.160338664617711, 4.645554998703177 ], [ -74.156306651049618, 4.640578096785211 ] ] ] } },
{ "type": "Feature", "properties": { "nombre": "CIUDAD JARDIN", "codigo_upz": "35", "codigo_loca": "15" }, "geometry": { "type": "Polygon", "coordinates": [ [ [ -74.084930869840619, 4.589319823290061 ], [ -74.094582458140309, 4.575796995908364 ], [ -74.102494171738599, 4.581260059559199 ], [ -74.094438144327512, 4.585780165188916 ], [ -74.089483471099996, 4.591682866602298 ], [ -74.084930869840619, 4.589319823290061 ] ] ] } },
{ "type": "Feature", "properties": { "nombre": "EL TESORO", "codigo_upz": "68", "codigo_loca": "19" }, "geometry": { "type": "MultiPolygon", "coordinates": [ [ [ [ -74.134934725883497, 4.532982243726104 ], [ -74.139698382257166, 4.536142004303741 ], [ -74.141200780985201, 4.534033077020924 ], [ -74.144022953699917, 4.534189826884164 ], [ -74.145026764697889, 4.53135899670684 ], [ -74.14661229724112, 4.531224338569751 ], [ -74.146904327240748, 4.53240957333783 ], [ -74.149785259769317, 4.5316658132361 ], [ -74.149382726877036, 4.53338910506695 ], [ -74.150400368625711, 4.532803732260342 ], [ -74.150976353806072, 4.534181974556515 ], [ -74.149667442089282, 4.534853998609139 ], [ -74.151586884917464, 4.538657511934092 ], [ -74.149057227623217, 4.538842740095656 ], [ -74.147608108310024, 4.541481271300817 ], [ -74.143425889675385, 4.541689628516065 ], [ -74.143210169629839, 4.543845896231936 ], [ -74.141077503521586, 4.545655455677373 ], [ -74.137792794679982, 4.545696140616677 ], [ -74.137052921796553, 4.547717013989529 ], [ -74.133498179844892, 4.5401992482855 ], [ -74.130560437116742, 4.537754474737111 ], [ -74.13378103893784, 4.536350834816828 ], [ -74.134934725883497, 4.532982243726104 ] ] ], [ [ [ -74.154628066473478, 4.532932126488471 ], [ -74.154580425950314, 4.533953589309165 ], [ -74.151462546549325, 4.535316149198724 ], [ -74.151063825121014, 4.534287412709721 ], [ -74.154628066473478, 4.532932126488471 ] ] ], [ [ [ -74.150109112592332, 4.53063813741339 ], [ -74.151378251805852, 4.531618009818505 ], [ -74.151477545057062, 4.532095689603377 ], [ -74.150285809364533, 4.53166828677337 ], [ -74.150109112592332, 4.53063813741339 ] ] ] ] } },
{ "type": "Feature", "properties": { "nombre": "SUBA", "codigo_upz": "27", "codigo_loca": "11" }, "geometry": { "type": "Polygon", "coordinates": [ [ [ -74.105794120515725, 4.751525339370545 ], [ -74.100371899309664, 4.768027485088287 ], [ -74.099983038208109, 4.765296419291986 ], [ -74.101322329688401, 4.761965348809167 ], [ -74.095532338537978, 4.761267298474372 ], [ -74.095790202227462, 4.760296075481405 ], [ -74.091704100489622, 4.758162205292404 ], [ -74.090212032166448, 4.759771723560624 ], [ -74.090883705064783, 4.758474839344217 ], [ -74.089488735253113, 4.759032684282305 ], [ -74.088644854636556, 4.757516452811649 ], [ -74.084574983834344, 4.758911379989442 ], [ -74.075635177685001, 4.759081965986354 ], [ -74.072835854007948, 4.757083861423775 ], [ -74.072379858453687, 4.753949387083109 ], [ -74.075908131398194, 4.751185279805474 ], [ -74.074127376522569, 4.744608046144941 ], [ -74.078277824974904, 4.733857056906013 ], [ -74.086440558240369, 4.738423055697172 ], [ -74.096191027140847, 4.746576722716261 ], [ -74.105794120515725, 4.751525339370545 ] ] ] } },
{ "type": "Feature", "properties": { "nombre": "DOCE DE OCTUBRE", "codigo_upz": "22", "codigo_loca": "12" }, "geometry": { "type": "Polygon", "coordinates": [ [ [ -74.077504745436499, 4.658485637435668 ], [ -74.082381831147529, 4.661321781478939 ], [ -74.089251393836847, 4.67189012503939 ], [ -74.085178451640758, 4.678943196224209 ], [ -74.079022765522339, 4.684006143180635 ], [ -74.07532204675276, 4.67917034245102 ], [ -74.067392832005496, 4.673929784025193 ], [ -74.075259431782385, 4.665557067769808 ], [ -74.077504745436499, 4.658485637435668 ] ] ] } },
{ "type": "Feature", "properties": { "nombre": "JARDIN BOTANICO", "codigo_upz": "105", "codigo_loca": "10" }, "geometry": { "type": "Polygon", "coordinates": [ [ [ -74.093715415656419, 4.666065228365126 ], [ -74.103415758157311, 4.653507284372814 ], [ -74.109424553468841, 4.662935486697785 ], [ -74.10089990478572, 4.670721756424543 ], [ -74.093715415656419, 4.666065228365126 ] ] ] } },
{ "type": "Feature", "properties": { "nombre": "PARQUE SIMON BOLIVAR - CAN", "codigo_upz": "104", "codigo_loca": "13" }, "geometry": { "type": "Polygon", "coordinates": [ [ [ -74.085814318175878, 4.655351205928125 ], [ -74.095580633178329, 4.650147537541094 ], [ -74.088984936171073, 4.63992100982057 ], [ -74.08409831220618, 4.645173460635534 ], [ -74.078953556859446, 4.642714839621528 ], [ -74.079640269674016, 4.633255189641828 ], [ -74.08288046372806, 4.631918739419804 ], [ -74.091838718337542, 4.635692845240338 ], [ -74.103415758157311, 4.653507284372814 ], [ -74.093715415656419, 4.666065228365126 ], [ -74.085814318175878, 4.655351205928125 ] ] ] } },
{ "type": "Feature", "properties": { "nombre": "ENGATIVA", "codigo_upz": "74", "codigo_loca": "10" }, "geometry": { "type": "Polygon", "coordinates": [ [ [ -74.122816445606134, 4.697363164629182 ], [ -74.124680827564916, 4.694935657579405 ], [ -74.154778049677674, 4.71764481717037 ], [ -74.156783447871632, 4.717449966628517 ], [ -74.160344200547485, 4.720234088760531 ], [ -74.159769359331918, 4.723841751340855 ], [ -74.157081591455267, 4.725567810637237 ], [ -74.157106005757967, 4.723710134321661 ], [ -74.15110334820524, 4.7227316917293 ], [ -74.149235039190472, 4.725464986030638 ], [ -74.144109108358478, 4.728238138726425 ], [ -74.139476755056975, 4.725483292919856 ], [ -74.135724395013085, 4.722326958770993 ], [ -74.135119522504965, 4.720121601511613 ], [ -74.130102744109919, 4.716671632576332 ], [ -74.131413546411295, 4.71412573099986 ], [ -74.129339486320447, 4.711231768535987 ], [ -74.126305490829708, 4.709988026719376 ], [ -74.128836773058623, 4.705071791982262 ], [ -74.127778122871305, 4.703418805887154 ], [ -74.124879963129231, 4.703403439439866 ], [ -74.12213209050077, 4.701613511680621 ], [ -74.122816445606134, 4.697363164629182 ] ] ] } },
{ "type": "Feature", "properties": { "nombre": "KENNEDY CENTRAL", "codigo_upz": "47", "codigo_loca": "08" }, "geometry": { "type": "Polygon", "coordinates": [ [ [ -74.174712831339733, 4.61451650384322 ], [ -74.161966055363976, 4.623258716417651 ], [ -74.155089291154979, 4.631828144549516 ], [ -74.148406562248539, 4.631416659713164 ], [ -74.145282757460464, 4.626717096346384 ], [ -74.14636425012614, 4.624080619918728 ], [ -74.141860478495701, 4.619809624514707 ], [ -74.164408532516092, 4.614518929054566 ], [ -74.172780044581302, 4.613354493218398 ], [ -74.174712831339733, 4.61451650384322 ] ] ] } },
{ "type": "Feature", "properties": { "nombre": "JERUSALEM", "codigo_upz": "70", "codigo_loca": "19" }, "geometry": { "type": "Polygon", "coordinates": [ [ [ -74.178517333606734, 4.570167832926555 ], [ -74.175108901878716, 4.571920439786527 ], [ -74.169228971351259, 4.570962127043307 ], [ -74.159814768690822, 4.578894062589355 ], [ -74.160597640333677, 4.580103722826999 ], [ -74.157379141854292, 4.580453320782667 ], [ -74.153973012450251, 4.57449243061032 ], [ -74.154791968886016, 4.573915880383345 ], [ -74.15305722018195, 4.570097689538621 ], [ -74.151186376877959, 4.568837384643319 ], [ -74.151064426473795, 4.566195737471384 ], [ -74.156558489097165, 4.564789882716577 ], [ -74.151488309254191, 4.559881095616434 ], [ -74.156077599244625, 4.55897234239699 ], [ -74.159033414310443, 4.5555369672489 ], [ -74.15794759940232, 4.557245054396985 ], [ -74.160919881930354, 4.56308806049217 ], [ -74.162341135351951, 4.562024187547099 ], [ -74.162817796287257, 4.559179275279197 ], [ -74.166184726510735, 4.557777007470365 ], [ -74.164706135773983, 4.55495392229159 ], [ -74.174173261514028, 4.552438112760839 ], [ -74.177063450606994, 4.553866804145927 ], [ -74.176384744407372, 4.560490145701228 ], [ -74.178517333606734, 4.570167832926555 ] ] ] } },
{ "type": "Feature", "properties": { "nombre": "SAN FRANCISCO", "codigo_upz": "66", "codigo_loca": "19" }, "geometry": { "type": "Polygon", "coordinates": [ [ [ -74.156558489097165, 4.564789882716577 ], [ -74.151064426473795, 4.566195737471384 ], [ -74.151186376877959, 4.568837384643319 ], [ -74.154791968886016, 4.573915880383345 ], [ -74.153973012450251, 4.57449243061032 ], [ -74.143429412317715, 4.5669120511013 ], [ -74.140626531455439, 4.567002402097819 ], [ -74.140449012493576, 4.564958416610976 ], [ -74.138697138404623, 4.563665029724686 ], [ -74.139195077264944, 4.561619786230566 ], [ -74.143388073522459, 4.558852998655678 ], [ -74.142680922361336, 4.556499826090875 ], [ -74.149158229153457, 4.559691679434892 ], [ -74.152102959066951, 4.556742065362446 ], [ -74.152990159187723, 4.559220579699202 ], [ -74.151488309254191, 4.559881095616434 ], [ -74.156558489097165, 4.564789882716577 ] ] ] } },
{ "type": "Feature", "properties": { "nombre": "ARBORIZADORA", "codigo_upz": "65", "codigo_loca": "19" }, "geometry": { "type": "Polygon", "coordinates": [ [ [ -74.16197332217817, 4.595624417410372 ], [ -74.152160101381014, 4.599758615701803 ], [ -74.149695209071652, 4.595711464305199 ], [ -74.151775071400507, 4.596398967474789 ], [ -74.154187396538177, 4.592856341288142 ], [ -74.152054617034494, 4.593044122046807 ], [ -74.151388502683631, 4.591400206336099 ], [ -74.154259671952445, 4.591257837165601 ], [ -74.156956505058901, 4.588703540757041 ], [ -74.153321124942579, 4.587904403945779 ], [ -74.153069740011773, 4.586379133494901 ], [ -74.15175791886675, 4.58741747087111 ], [ -74.152647901195465, 4.588696557593432 ], [ -74.15049479803956, 4.587985611453788 ], [ -74.15215505810022, 4.58540767154597 ], [ -74.15059129751107, 4.584521161935774 ], [ -74.151114270298152, 4.582574922657381 ], [ -74.148421533469161, 4.583309790009044 ], [ -74.147215858930466, 4.581947290684693 ], [ -74.149314336801723, 4.581454089677937 ], [ -74.149990242569672, 4.578326786190094 ], [ -74.148717017526522, 4.576470225568352 ], [ -74.1483552051603, 4.578080168256245 ], [ -74.147058125216304, 4.576494223932187 ], [ -74.147447324671575, 4.573743683616588 ], [ -74.146508578654831, 4.574795292011274 ], [ -74.144839506393041, 4.573010683118085 ], [ -74.142617555627197, 4.577316763480379 ], [ -74.140961146494178, 4.57607416155698 ], [ -74.143245018717366, 4.572827116764205 ], [ -74.140460455333681, 4.570469038921984 ], [ -74.1417097079743, 4.568845485756203 ], [ -74.140460493354396, 4.568326329277964 ], [ -74.140626531455439, 4.567002402097819 ], [ -74.143648628020514, 4.567036982513147 ], [ -74.154331434856303, 4.574952313346238 ], [ -74.160933974473281, 4.587516160784253 ], [ -74.16197332217817, 4.595624417410372 ] ] ] } },
{ "type": "Feature", "properties": { "nombre": "CALANDAIMA", "codigo_upz": "79", "codigo_loca": "08" }, "geometry": { "type": "Polygon", "coordinates": [ [ [ -74.177513940460372, 4.654241540262436 ], [ -74.174580796152796, 4.654406605551931 ], [ -74.174130952486976, 4.655961334581177 ], [ -74.171243853438426, 4.657048126554548 ], [ -74.164596230359876, 4.649846358122885 ], [ -74.159266382201238, 4.652827679533582 ], [ -74.158697678339436, 4.65187133753941 ], [ -74.154496034060173, 4.656224703689856 ], [ -74.146992815857132, 4.649109932530846 ], [ -74.15631497724452, 4.640590578393102 ], [ -74.160338664617711, 4.645554998703177 ], [ -74.166891786230408, 4.639892880261015 ], [ -74.177513940460372, 4.654241540262436 ] ] ] } },
{ "type": "Feature", "properties": { "nombre": "ALFONSO LOPEZ", "codigo_upz": "59", "codigo_loca": "05" }, "geometry": { "type": "Polygon", "coordinates": [ [ [ -74.094793165921203, 4.499909055498759 ], [ -74.095684866799886, 4.497269877324499 ], [ -74.099529079370541, 4.495107402864641 ], [ -74.098769907898344, 4.493846265358771 ], [ -74.099638805610525, 4.49288023397891 ], [ -74.09811402172204, 4.491852089381458 ], [ -74.099201140807267, 4.490695114859824 ], [ -74.0967765981041, 4.490320849971098 ], [ -74.096139719367415, 4.485629301909153 ], [ -74.098741461054018, 4.484647657520202 ], [ -74.106678506996488, 4.487314084238405 ], [ -74.109876551266765, 4.490677046768951 ], [ -74.104352992645175, 4.505594404991302 ], [ -74.098698874242999, 4.499934077765861 ], [ -74.094793165921203, 4.499909055498759 ] ] ] } },
{ "type": "Feature", "properties": { "nombre": "CARVAJAL", "codigo_upz": "45", "codigo_loca": "08" }, "geometry": { "type": "Polygon", "coordinates": [ [ [ -74.141856548030361, 4.619130181943154 ], [ -74.13926215174908, 4.618503304559743 ], [ -74.134106228895391, 4.612516722847269 ], [ -74.129085637558887, 4.609248378004008 ], [ -74.137766184214982, 4.594885110500994 ], [ -74.152263703426812, 4.59568689721456 ], [ -74.151193611995865, 4.596570574576628 ], [ -74.149719630415007, 4.595654897733417 ], [ -74.152160101381014, 4.599758615701803 ], [ -74.146713259244677, 4.602054965151225 ], [ -74.145636780771653, 4.606271656001232 ], [ -74.152983934590836, 4.617039403137044 ], [ -74.141856548030361, 4.619130181943154 ] ] ] } },
{ "type": "Feature", "properties": { "nombre": "LA ALHAMBRA", "codigo_upz": "20", "codigo_loca": "11" }, "geometry": { "type": "Polygon", "coordinates": [ [ [ -74.070383069566688, 4.70104078768441 ], [ -74.065939625008653, 4.703101155521816 ], [ -74.064500693626215, 4.709118485598009 ], [ -74.053904307428382, 4.706744906107342 ], [ -74.057247030882877, 4.686836295669481 ], [ -74.065156777913529, 4.68901556074426 ], [ -74.070383069566688, 4.70104078768441 ] ] ] } },
{ "type": "Feature", "properties": { "nombre": "LOS LIBERTADORES", "codigo_upz": "51", "codigo_loca": "04" }, "geometry": { "type": "Polygon", "coordinates": [ [ [ -74.081837966121938, 4.529477332158611 ], [ -74.080173848042364, 4.526546041845957 ], [ -74.082849361949968, 4.527766568401494 ], [ -74.087820359384395, 4.520647733651129 ], [ -74.081891818178292, 4.517817601021951 ], [ -74.091070694878411, 4.519684044490032 ], [ -74.089555152026577, 4.517095722641343 ], [ -74.094913441048064, 4.517272375061261 ], [ -74.093424829378833, 4.523375815150316 ], [ -74.095220709970832, 4.535334285640725 ], [ -74.096998501553912, 4.539907841037669 ], [ -74.097809346581556, 4.538734606975606 ], [ -74.0985432458085, 4.539785008274732 ], [ -74.098601338116239, 4.543038238959969 ], [ -74.102628792823978, 4.546337663141816 ], [ -74.101271064108872, 4.548724908289556 ], [ -74.086137666015034, 4.539723788060352 ], [ -74.083744900595846, 4.537302675295048 ], [ -74.083995678768076, 4.534631107737606 ], [ -74.08131679303348, 4.53235946287425 ], [ -74.081837966121938, 4.529477332158611 ] ] ] } },
{ "type": "Feature", "properties": { "nombre": "CAPELLANIA", "codigo_upz": "115", "codigo_loca": "09" }, "geometry": { "type": "Polygon", "coordinates": [ [ [ -74.133081867310253, 4.691178506475652 ], [ -74.120898435781982, 4.681014596895121 ], [ -74.112177954878476, 4.665745440446887 ], [ -74.11904879691609, 4.673130974487487 ], [ -74.121207029774865, 4.677413517936041 ], [ -74.126806808506572, 4.670523851468089 ], [ -74.131827227372042, 4.672513904147337 ], [ -74.135101375445274, 4.670629976394488 ], [ -74.133383872288704, 4.674673178955565 ], [ -74.130388462672116, 4.67758866466292 ], [ -74.135997980948517, 4.683216733457641 ], [ -74.134950179767984, 4.684549249319995 ], [ -74.137115503035645, 4.686165033886933 ], [ -74.133081867310253, 4.691178506475652 ] ] ] } },
{ "type": "Feature", "properties": { "nombre": "SAN RAFAEL", "codigo_upz": "43", "codigo_loca": "16" }, "geometry": { "type": "Polygon", "coordinates": [ [ [ -74.129060299229991, 4.609326553634244 ], [ -74.122414845457342, 4.629032124434762 ], [ -74.106925296530619, 4.627259683365353 ], [ -74.10581563193945, 4.618452062404828 ], [ -74.129060299229991, 4.609326553634244 ] ] ] } },
{ "type": "Feature", "properties": { "nombre": "LA FLORESTA", "codigo_upz": "25", "codigo_loca": "11" }, "geometry": { "type": "Polygon", "coordinates": [ [ [ -74.089722147638412, 4.716667064708807 ], [ -74.089208655620254, 4.714469797605291 ], [ -74.080757625614481, 4.710728543360583 ], [ -74.084807152505547, 4.707966346461914 ], [ -74.081198208371859, 4.703716811524397 ], [ -74.070541560841249, 4.701559648471332 ], [ -74.06515677791343, 4.689015561648205 ], [ -74.071155084276711, 4.689355413087887 ], [ -74.077327792548473, 4.685359688375128 ], [ -74.080948433988425, 4.693143743674646 ], [ -74.084672280891454, 4.694373483179445 ], [ -74.0858903280714, 4.697336137238943 ], [ -74.088368629851971, 4.698530356387367 ], [ -74.087988577599305, 4.705654109705073 ], [ -74.089737321822369, 4.707021839906744 ], [ -74.090872517944774, 4.710497396124339 ], [ -74.093608192879586, 4.711977209342414 ], [ -74.092800603752451, 4.717055822457167 ], [ -74.089722147638412, 4.716667064708807 ] ] ] } },
{ "type": "Feature", "properties": { "nombre": "DANUBIO", "codigo_upz": "56", "codigo_loca": "05" }, "geometry": { "type": "Polygon", "coordinates": [ [ [ -74.121148083162751, 4.54542955769065 ], [ -74.116328936805161, 4.540643764519727 ], [ -74.112567496715826, 4.5403771084999 ], [ -74.112382413767989, 4.541682809040618 ], [ -74.108805682216158, 4.539363827199545 ], [ -74.109395882786814, 4.538341696278899 ], [ -74.107656776373048, 4.537364121614475 ], [ -74.106510326959267, 4.534464138662327 ], [ -74.105715688606324, 4.535582723629022 ], [ -74.103724959494585, 4.534402512737396 ], [ -74.103578087534117, 4.531431546681785 ], [ -74.110504092947409, 4.531269210911355 ], [ -74.109229884349716, 4.528955237105582 ], [ -74.112086278990958, 4.529495868710298 ], [ -74.113449176717239, 4.526488619295898 ], [ -74.119905170012004, 4.526987673991637 ], [ -74.121454063526826, 4.529427840475608 ], [ -74.121106806181075, 4.532051537980125 ], [ -74.123113092594622, 4.530305449519487 ], [ -74.124854515642525, 4.54407612182314 ], [ -74.12608586344075, 4.544822985963707 ], [ -74.121148083162751, 4.54542955769065 ] ] ] } },
{ "type": "Feature", "properties": { "nombre": "LAS FERIAS", "codigo_upz": "26", "codigo_loca": "10" }, "geometry": { "type": "Polygon", "coordinates": [ [ [ -74.077327792548473, 4.685359688375128 ], [ -74.085178451640758, 4.678943196224209 ], [ -74.093715415656419, 4.666065228365126 ], [ -74.100989112725216, 4.670640276780794 ], [ -74.103889996822659, 4.674659641687518 ], [ -74.089342027215039, 4.695368688941192 ], [ -74.085431269007628, 4.69653087679836 ], [ -74.084672280891454, 4.694373483179445 ], [ -74.081087999781374, 4.693264517737743 ], [ -74.077327792548473, 4.685359688375128 ] ] ] } },
{ "type": "Feature", "properties": { "nombre": "LA SABANA", "codigo_upz": "102", "codigo_loca": "14" }, "geometry": { "type": "Polygon", "coordinates": [ [ [ -74.072829117630974, 4.615417331944903 ], [ -74.084782629752652, 4.596962751657063 ], [ -74.097883855529048, 4.606548132513189 ], [ -74.083198946860264, 4.624698289489915 ], [ -74.07882820710833, 4.62389149407133 ], [ -74.072829117630974, 4.615417331944903 ] ] ] } },
{ "type": "Feature", "properties": { "nombre": "LA ACADEMIA", "codigo_upz": "02", "codigo_loca": "11" }, "geometry": { "type": "Polygon", "coordinates": [ [ [ -74.038485238668656, 4.799522777151305 ], [ -74.043707969310134, 4.768129190047898 ], [ -74.05554449631002, 4.771380505386911 ], [ -74.059190440532888, 4.769449121094613 ], [ -74.063826471994417, 4.772350829617622 ], [ -74.059314884557097, 4.780411128840189 ], [ -74.05357845101706, 4.799503326728716 ], [ -74.049098363161264, 4.797928387733714 ], [ -74.048077488946049, 4.802782888721765 ], [ -74.042507696942849, 4.801692193886027 ], [ -74.041515303970613, 4.80769702367595 ], [ -74.044407087927183, 4.808451645540559 ], [ -74.040694281444132, 4.810051087956501 ], [ -74.040802826136613, 4.807113227660061 ], [ -74.039253470174231, 4.80430171618235 ], [ -74.040136954070434, 4.801391174004323 ], [ -74.038485238668656, 4.799522777151305 ] ] ] } },
{ "type": "Feature", "properties": { "nombre": "ALAMOS", "codigo_upz": "116", "codigo_loca": "10" }, "geometry": { "type": "Polygon", "coordinates": [ [ [ -74.124680827564916, 4.694935657579405 ], [ -74.122706618381557, 4.697705261460709 ], [ -74.109210042810687, 4.689740549468921 ], [ -74.116693594894343, 4.681657736737942 ], [ -74.113451130205121, 4.676665387864958 ], [ -74.112973061841757, 4.668503304386955 ], [ -74.121681712162086, 4.682114692258904 ], [ -74.124650903948279, 4.684803913363053 ], [ -74.118400273846277, 4.688651401693131 ], [ -74.120378183252143, 4.692221160105932 ], [ -74.124680827564916, 4.694935657579405 ] ] ] } },
{ "type": "Feature", "properties": { "nombre": "GRAN BRITALIA", "codigo_upz": "81", "codigo_loca": "08" }, "geometry": { "type": "Polygon", "coordinates": [ [ [ -74.170644611174168, 4.628272565741522 ], [ -74.166002035581243, 4.621042432556888 ], [ -74.178360824575989, 4.611206172923013 ], [ -74.181903611669128, 4.61426123902048 ], [ -74.179938866186816, 4.61510855314936 ], [ -74.179859544750954, 4.616906986222277 ], [ -74.182025875631666, 4.614655439718045 ], [ -74.182752221006936, 4.617124384525704 ], [ -74.185098119124632, 4.615721613266834 ], [ -74.185234583113086, 4.618855053837437 ], [ -74.180104454514392, 4.618485776874285 ], [ -74.177237668528377, 4.622354772203702 ], [ -74.177057471444144, 4.625847683825921 ], [ -74.170644611174168, 4.628272565741522 ] ] ] } },
{ "type": "Feature", "properties": { "nombre": "LA FLORA", "codigo_upz": "52", "codigo_loca": "05" }, "geometry": { "type": "Polygon", "coordinates": [ [ [ -74.085101728353919, 4.49757856266962 ], [ -74.089426186441429, 4.497556286445231 ], [ -74.093452595844695, 4.502340004205964 ], [ -74.094913441048064, 4.517272375061261 ], [ -74.087576740682977, 4.517498438183893 ], [ -74.087144686550701, 4.516549041621694 ], [ -74.088840909039192, 4.516193264163324 ], [ -74.088521464001104, 4.508697097813017 ], [ -74.083143693650882, 4.509077739351558 ], [ -74.082545082004387, 4.507449089082257 ], [ -74.088126393046295, 4.504983385531271 ], [ -74.086412932931793, 4.501746102830682 ], [ -74.08275305554163, 4.503460152111358 ], [ -74.078808207272999, 4.503416749788477 ], [ -74.078589313757575, 4.502506350789122 ], [ -74.085707301951714, 4.49999167012696 ], [ -74.085101728353919, 4.49757856266962 ] ] ] } },
{ "type": "Feature", "properties": { "nombre": "SOSIEGO", "codigo_upz": "33", "codigo_loca": "04" }, "geometry": { "type": "Polygon", "coordinates": [ [ [ -74.094582458140309, 4.575796995908364 ], [ -74.0849319284427, 4.589318273108272 ], [ -74.078915135977198, 4.582519845804136 ], [ -74.080936682785463, 4.581185458655795 ], [ -74.077937138726043, 4.574951655406047 ], [ -74.079833958869202, 4.571559013169706 ], [ -74.086403460672358, 4.569358899364036 ], [ -74.094582458140309, 4.575796995908364 ] ] ] } },
{ "type": "Feature", "properties": { "nombre": "EL PRADO", "codigo_upz": "19", "codigo_loca": "11" }, "geometry": { "type": "Polygon", "coordinates": [ [ [ -74.064500693626215, 4.709118485598009 ], [ -74.065181962467634, 4.711535986460965 ], [ -74.064224509110431, 4.714477564754088 ], [ -74.061951440800343, 4.716039890134105 ], [ -74.061465912304698, 4.719125593938915 ], [ -74.057243283444805, 4.725457709056366 ], [ -74.064360869970045, 4.728169500703251 ], [ -74.061264897863822, 4.740841459261584 ], [ -74.048691975802313, 4.737778412506017 ], [ -74.053904307428382, 4.706744906107342 ], [ -74.064500693626215, 4.709118485598009 ] ] ] } },
{ "type": "Feature", "properties": { "nombre": "MUZU", "codigo_upz": "41", "codigo_loca": "16" }, "geometry": { "type": "Polygon", "coordinates": [ [ [ -74.137766184214982, 4.594885110500994 ], [ -74.129060299229991, 4.609326553634244 ], [ -74.113272034987816, 4.595877866743823 ], [ -74.12635174490245, 4.593251236254892 ], [ -74.137766184214982, 4.594885110500994 ] ] ] } },
{ "type": "Feature", "properties": { "nombre": "SANTA ISABEL", "codigo_upz": "37", "codigo_loca": "14" }, "geometry": { "type": "Polygon", "coordinates": [ [ [ -74.084782629752652, 4.596962751657063 ], [ -74.089004896290163, 4.591819545953081 ], [ -74.099084549414684, 4.594919370147644 ], [ -74.103204456185239, 4.594661270510754 ], [ -74.107073004967546, 4.598243987639957 ], [ -74.097883855529048, 4.606548132513189 ], [ -74.084782629752652, 4.596962751657063 ] ] ] } },
{ "type": "Feature", "properties": { "nombre": "QUINTA PAREDES", "codigo_upz": "107", "codigo_loca": "13" }, "geometry": { "type": "Polygon", "coordinates": [ [ [ -74.092445478965587, 4.636480177678784 ], [ -74.090076550814615, 4.634459509426273 ], [ -74.082880464628943, 4.631918739419886 ], [ -74.079640269674016, 4.633255189641828 ], [ -74.080291605908471, 4.628852898184635 ], [ -74.083198946860264, 4.624698289489915 ], [ -74.091451503771808, 4.625717199586219 ], [ -74.100863459367886, 4.635373025495571 ], [ -74.096515342919645, 4.638383959056305 ], [ -74.09536224362617, 4.634523379473735 ], [ -74.092445478965587, 4.636480177678784 ] ] ] } },
{ "type": "Feature", "properties": { "nombre": "GARCES NAVAS", "codigo_upz": "73", "codigo_loca": "10" }, "geometry": { "type": "Polygon", "coordinates": [ [ [ -74.122706618381557, 4.697705261460709 ], [ -74.12213209050077, 4.701613511680621 ], [ -74.124879963129231, 4.703403439439866 ], [ -74.127778122871305, 4.703418805887154 ], [ -74.128836773058623, 4.705071791982262 ], [ -74.126305490829694, 4.709988027623321 ], [ -74.129339486320447, 4.711231768535987 ], [ -74.131413546411295, 4.71412573099986 ], [ -74.130280398297899, 4.716931099285604 ], [ -74.135119522504965, 4.720121601511613 ], [ -74.136193954968036, 4.722844337038596 ], [ -74.144109108358478, 4.728238138726425 ], [ -74.137394279250557, 4.730725913268451 ], [ -74.136005949968407, 4.728292290949906 ], [ -74.130976949640427, 4.730877710987246 ], [ -74.129541346899032, 4.73033049494506 ], [ -74.128927732998335, 4.726771405157795 ], [ -74.126940681957521, 4.728617991991706 ], [ -74.110089667063775, 4.707907289336435 ], [ -74.11758531468297, 4.694727508906354 ], [ -74.122706618381557, 4.697705261460709 ] ] ] } },
{ "type": "Feature", "properties": { "nombre": "SANTA CECILIA", "codigo_upz": "31", "codigo_loca": "10" }, "geometry": { "type": "Polygon", "coordinates": [ [ [ -74.099416599928446, 4.681051616829358 ], [ -74.103889996822659, 4.674659641687518 ], [ -74.100989112725216, 4.670640276780794 ], [ -74.109424553468841, 4.662935486697785 ], [ -74.112973061841757, 4.668503304386955 ], [ -74.113451130205121, 4.676665387864958 ], [ -74.116693594894343, 4.681657736737942 ], [ -74.109210042810687, 4.689740549468921 ], [ -74.099416599928446, 4.681051616829358 ] ] ] } },
{ "type": "Feature", "properties": { "nombre": "COMUNEROS", "codigo_upz": "58", "codigo_loca": "05" }, "geometry": { "type": "Polygon", "coordinates": [ [ [ -74.104352992645175, 4.505594404991302 ], [ -74.109849885231327, 4.490637638532726 ], [ -74.113084976249098, 4.490121090742067 ], [ -74.11233020088136, 4.489166746030919 ], [ -74.114083495607474, 4.487329705002135 ], [ -74.120459291003854, 4.48751773289728 ], [ -74.120481577339561, 4.491081414848543 ], [ -74.123129971792721, 4.491542898414588 ], [ -74.121349192287752, 4.492998251810139 ], [ -74.122701798507634, 4.499627297872566 ], [ -74.12559898151828, 4.501797388398564 ], [ -74.126845151022181, 4.501319824735815 ], [ -74.128442263651351, 4.504408070286789 ], [ -74.126737308970135, 4.506211813094999 ], [ -74.127312201872414, 4.510692527465326 ], [ -74.125610315136996, 4.520161546378202 ], [ -74.128856402512284, 4.524717708134876 ], [ -74.12648248950488, 4.525635766996139 ], [ -74.122369640261425, 4.51997440955118 ], [ -74.121401517218459, 4.511326539130381 ], [ -74.113556289069862, 4.507037404383522 ], [ -74.105512247990248, 4.506630917253246 ], [ -74.104352992645175, 4.505594404991302 ] ] ] } },
{ "type": "Feature", "properties": { "nombre": "LOS CEDROS", "codigo_upz": "13", "codigo_loca": "01" }, "geometry": { "type": "Polygon", "coordinates": [ [ [ -74.051848881438985, 4.718986191648862 ], [ -74.048691975802313, 4.737778412506017 ], [ -74.042818924475668, 4.736501596527385 ], [ -74.024608439585492, 4.727581413393003 ], [ -74.023468097049786, 4.731082139960714 ], [ -74.020586437413812, 4.729624198729374 ], [ -74.021430767864899, 4.726727886704495 ], [ -74.019369591568434, 4.726096721050943 ], [ -74.019572166646128, 4.724521099320667 ], [ -74.018117394020805, 4.723747132773692 ], [ -74.022379304652247, 4.721136461743462 ], [ -74.022406173821935, 4.718623508125783 ], [ -74.020703292100876, 4.717783060062935 ], [ -74.02144725964466, 4.715736767184 ], [ -74.01974639962026, 4.714728274903925 ], [ -74.023075775428353, 4.714817945848851 ], [ -74.023293977052447, 4.711511274493954 ], [ -74.029162299401833, 4.711610005058934 ], [ -74.051848881438985, 4.718986191648862 ] ] ] } },
{ "type": "Feature", "properties": { "nombre": "EL MOCHUELO", "codigo_upz": "63", "codigo_loca": "19" }, "geometry": { "type": "Polygon", "coordinates": [ [ [ -74.129977843488518, 4.546037804724977 ], [ -74.124854515642525, 4.54407612182314 ], [ -74.123213278204886, 4.527459074393948 ], [ -74.124786551779081, 4.527585549277982 ], [ -74.129098630602954, 4.524313200244712 ], [ -74.132668184430102, 4.523908652733015 ], [ -74.13334337074096, 4.527104061690977 ], [ -74.135516793515819, 4.52909344137877 ], [ -74.134934725883497, 4.532982243726104 ], [ -74.13378103893784, 4.536350834816828 ], [ -74.130560437116742, 4.537754474737111 ], [ -74.133498179844892, 4.5401992482855 ], [ -74.137052921796553, 4.547717013989529 ], [ -74.136704546365308, 4.552108147918987 ], [ -74.135115022010396, 4.552349209816888 ], [ -74.134129406190908, 4.55645904186014 ], [ -74.131969192101863, 4.55263831486953 ], [ -74.131969634533789, 4.549550765827054 ], [ -74.127097574599119, 4.54961614070311 ], [ -74.125363668507177, 4.547505708900131 ], [ -74.12630417997066, 4.546122843826611 ], [ -74.126939815637414, 4.547216575213109 ], [ -74.129977843488518, 4.546037804724977 ] ] ] } },
{ "type": "Feature", "properties": { "nombre": "TINTAL SUR", "codigo_upz": "87", "codigo_loca": "07" }, "geometry": { "type": "Polygon", "coordinates": [ [ [ -74.203702797572404, 4.619185898649916 ], [ -74.205706262536836, 4.613931070313475 ], [ -74.207028568271966, 4.616646952612643 ], [ -74.208676902277091, 4.614797982897736 ], [ -74.209329848770608, 4.616286844745855 ], [ -74.211786693991627, 4.61506511827803 ], [ -74.212162237028579, 4.617617464987911 ], [ -74.21771832609079, 4.615803510254794 ], [ -74.218411609804861, 4.61785243954293 ], [ -74.221740241148851, 4.618921606665442 ], [ -74.22081154003402, 4.619969426801449 ], [ -74.222396957637912, 4.621135647111522 ], [ -74.220667483758973, 4.623065737121248 ], [ -74.223581385004053, 4.625471575754735 ], [ -74.222429894489821, 4.629116992209472 ], [ -74.220865856548642, 4.630181256972697 ], [ -74.216293809339007, 4.62970562448303 ], [ -74.215795657212851, 4.63134202308365 ], [ -74.217509416967857, 4.635073541931118 ], [ -74.214695905272379, 4.637268897593362 ], [ -74.215763904158649, 4.640024567051538 ], [ -74.220017862801967, 4.641682706376617 ], [ -74.221294888104367, 4.644058760965455 ], [ -74.215562286754718, 4.644335418697339 ], [ -74.213962601019745, 4.640585947456809 ], [ -74.208170594236748, 4.64049037784119 ], [ -74.205485800031738, 4.642272202880076 ], [ -74.20710924612473, 4.646181929126098 ], [ -74.204933568061023, 4.645946924250207 ], [ -74.195748919306567, 4.628871640895456 ], [ -74.207881721765261, 4.623637172109436 ], [ -74.206650492038563, 4.620822673580827 ], [ -74.204453130755383, 4.622346550422177 ], [ -74.203702797572404, 4.619185898649916 ] ] ] } },
{ "type": "Feature", "properties": { "nombre": "ZONA FRANCA", "codigo_upz": "77", "codigo_loca": "09" }, "geometry": { "type": "Polygon", "coordinates": [ [ [ -74.156875129359349, 4.683252461189896 ], [ -74.15112153574016, 4.667986732366775 ], [ -74.140321665122414, 4.663657563844188 ], [ -74.140787345864922, 4.662656239280769 ], [ -74.144804882172608, 4.661227501433766 ], [ -74.151132737651736, 4.664172222788724 ], [ -74.154564810933863, 4.66426636280159 ], [ -74.157079624491658, 4.66153015222735 ], [ -74.161056820800894, 4.664726599118346 ], [ -74.160683141429331, 4.667118622049901 ], [ -74.170171972419453, 4.669260624350422 ], [ -74.170592286676765, 4.670736578776871 ], [ -74.169332916207026, 4.672136914489194 ], [ -74.166106892960045, 4.673267451717081 ], [ -74.164450411198487, 4.671114373625723 ], [ -74.162417612405136, 4.675288281925178 ], [ -74.156864645549916, 4.678404591342285 ], [ -74.160064723860515, 4.682956113815361 ], [ -74.162248221572938, 4.681010798558419 ], [ -74.160234145568893, 4.678310104711792 ], [ -74.164551025846066, 4.675673869938336 ], [ -74.16588111601493, 4.678177869906794 ], [ -74.169506953419088, 4.67535667203967 ], [ -74.171001018252483, 4.677176728279936 ], [ -74.171511229845365, 4.674335611897277 ], [ -74.174854923223421, 4.676572783418488 ], [ -74.173686864628706, 4.682614698274739 ], [ -74.167638137742273, 4.688018726719336 ], [ -74.17013372134555, 4.689876461308851 ], [ -74.172395311984388, 4.695996915686689 ], [ -74.170240194649452, 4.695486948946856 ], [ -74.159733403153737, 4.686986934882554 ], [ -74.156875129359349, 4.683252461189896 ] ] ] } },
{ "type": "Feature", "properties": { "nombre": "QUIROGA", "codigo_upz": "39", "codigo_loca": "18" }, "geometry": { "type": "Polygon", "coordinates": [ [ [ -74.130875117064363, 4.585899687614575 ], [ -74.12860974278864, 4.586644803514364 ], [ -74.128290446582184, 4.5926532191953 ], [ -74.124471399444118, 4.589959381171018 ], [ -74.116863246280161, 4.588447180870983 ], [ -74.108882339725199, 4.589228358789518 ], [ -74.102494171738599, 4.581260059559199 ], [ -74.109609863636649, 4.578176797698932 ], [ -74.122967869680167, 4.57494446439179 ], [ -74.125255771831931, 4.569567339042098 ], [ -74.127893613232345, 4.580078162999857 ], [ -74.129415983768865, 4.580078216556291 ], [ -74.130875117064363, 4.585899687614575 ] ] ] } },
{ "type": "Feature", "properties": { "nombre": "ZONA INDUSTRIAL", "codigo_upz": "108", "codigo_loca": "16" }, "geometry": { "type": "Polygon", "coordinates": [ [ [ -74.106925296530619, 4.627259683365353 ], [ -74.083198946860264, 4.624698289489915 ], [ -74.097883855529048, 4.606548132513189 ], [ -74.102618572455469, 4.61043884678306 ], [ -74.104838903120083, 4.614309448602801 ], [ -74.106925296530619, 4.627259683365353 ] ] ] } },
{ "type": "Feature", "properties": { "nombre": "CIUDAD USME", "codigo_upz": "61", "codigo_loca": "05" }, "geometry": { "type": "MultiPolygon", "coordinates": [ [ [ [ -74.0941826515472, 4.510334577450845 ], [ -74.093800008289108, 4.503144759872526 ], [ -74.091928472956866, 4.499998860549752 ], [ -74.089426186441429, 4.497556286445231 ], [ -74.084277433410094, 4.497635970351777 ], [ -74.081860107126673, 4.493829826262244 ], [ -74.082365853636361, 4.492945064944534 ], [ -74.088689818004624, 4.494057159132281 ], [ -74.092553492026283, 4.493163217870888 ], [ -74.096580080752858, 4.481958309889177 ], [ -74.092972297359836, 4.476279874048493 ], [ -74.096937083896464, 4.475955334903395 ], [ -74.09973362248418, 4.478017894105846 ], [ -74.103634178273538, 4.477609981049715 ], [ -74.107122610385829, 4.474725902816612 ], [ -74.108487973703276, 4.474941877035979 ], [ -74.108298655389959, 4.472064337357698 ], [ -74.110399711548126, 4.469394633446041 ], [ -74.112992213393923, 4.468716324102115 ], [ -74.117025895019665, 4.46300258008414 ], [ -74.122233487725339, 4.4617935038006 ], [ -74.125036255535107, 4.457859950078183 ], [ -74.129041496130043, 4.458601757503838 ], [ -74.12960535926382, 4.464014393261577 ], [ -74.130949929575749, 4.464985193677709 ], [ -74.133071517238633, 4.471861352668809 ], [ -74.130312488389322, 4.476370641439991 ], [ -74.128418558315616, 4.475290993443476 ], [ -74.124528236345284, 4.479113429310368 ], [ -74.12177093032227, 4.484234828640736 ], [ -74.121652474138671, 4.488175691993675 ], [ -74.120493844660587, 4.490581771922035 ], [ -74.121135893431386, 4.488529904159612 ], [ -74.120183811310952, 4.487342650000407 ], [ -74.114079202821245, 4.487330977575779 ], [ -74.11233020088136, 4.489166746030919 ], [ -74.113084976249098, 4.490121090742067 ], [ -74.109849885231327, 4.490637638532726 ], [ -74.106678506996488, 4.487314084238405 ], [ -74.098741461054018, 4.484647657520202 ], [ -74.096139719367415, 4.485629301909153 ], [ -74.0967765981041, 4.490320849971098 ], [ -74.099201140807267, 4.490695114859824 ], [ -74.09811402172204, 4.491852089381458 ], [ -74.099638805610525, 4.49288023397891 ], [ -74.098769907898344, 4.493846265358771 ], [ -74.099529079370541, 4.495107402864641 ], [ -74.095684866799886, 4.497269877324499 ], [ -74.094845604996664, 4.50148482708247 ], [ -74.097276604334567, 4.501623507585888 ], [ -74.098996873163173, 4.503851378835201 ], [ -74.098192954437252, 4.508893448080603 ], [ -74.0941826515472, 4.510334577450845 ] ] ], [ [ [ -74.079753054167782, 4.471764138229215 ], [ -74.081331816993981, 4.47129473618448 ], [ -74.083393210877787, 4.473083203138909 ], [ -74.079340030069019, 4.475048329634816 ], [ -74.079753054167782, 4.471764138229215 ] ] ] ] } },
{ "type": "Feature", "properties": { "nombre": "PASEO DE LOS LIBERTADORES", "codigo_upz": "01", "codigo_loca": "01" }, "geometry": { "type": "Polygon", "coordinates": [ [ [ -74.043188356081345, 4.77106712293584 ], [ -74.035075746145395, 4.820691066568369 ], [ -74.031277178702155, 4.820686935345448 ], [ -74.031377075104771, 4.823457316950303 ], [ -74.025704643136251, 4.823118357212445 ], [ -74.024972033649789, 4.822132077391157 ], [ -74.026527797317144, 4.821789366874849 ], [ -74.026360252821988, 4.81909157033684 ], [ -74.030912614406944, 4.818910274554991 ], [ -74.031038514494355, 4.812453621772005 ], [ -74.028428716764523, 4.811483178676256 ], [ -74.027737795590127, 4.813543541411086 ], [ -74.023848832312808, 4.813409269376698 ], [ -74.022843131203174, 4.808488324742943 ], [ -74.032402535462026, 4.809036477695919 ], [ -74.034408072505116, 4.796732857270884 ], [ -74.031273216688419, 4.796264657799655 ], [ -74.02829537712374, 4.79061597349309 ], [ -74.028196737164862, 4.784108217417424 ], [ -74.026201896146731, 4.777750320906029 ], [ -74.027144312732403, 4.769848801556094 ], [ -74.043188356081345, 4.77106712293584 ] ] ] } },
{ "type": "Feature", "properties": { "nombre": "CASTILLA", "codigo_upz": "46", "codigo_loca": "08" }, "geometry": { "type": "Polygon", "coordinates": [ [ [ -74.131756719526862, 4.648802129370784 ], [ -74.128568147979834, 4.64773414846554 ], [ -74.13598907551328, 4.639007356640815 ], [ -74.13777406440083, 4.630478942715875 ], [ -74.155140398048133, 4.631831463233667 ], [ -74.155421610330336, 4.633668488982451 ], [ -74.153861600313988, 4.635418308425898 ], [ -74.15631497724452, 4.640590578393102 ], [ -74.137112100890391, 4.65807250891633 ], [ -74.131756719526862, 4.648802129370784 ] ] ] } },
{ "type": "Feature", "properties": { "nombre": "BOSA CENTRAL", "codigo_upz": "85", "codigo_loca": "07" }, "geometry": { "type": "Polygon", "coordinates": [ [ [ -74.217123856469584, 4.61607905606251 ], [ -74.212162237028579, 4.617617464987911 ], [ -74.211786693991627, 4.61506511827803 ], [ -74.209329848770608, 4.616286844745855 ], [ -74.208383051293168, 4.614896174667559 ], [ -74.207273334960618, 4.616696017942598 ], [ -74.205567123570859, 4.613931080079412 ], [ -74.20253538929974, 4.618891703972839 ], [ -74.198550816692958, 4.617352293918515 ], [ -74.197833730805044, 4.619795608601151 ], [ -74.196668944969105, 4.617453681493262 ], [ -74.194672710368621, 4.618854918704624 ], [ -74.191252153318189, 4.618209212131944 ], [ -74.192169420586126, 4.614515903944171 ], [ -74.188305936538313, 4.612758282372836 ], [ -74.183393167725555, 4.617126688270607 ], [ -74.182025875631666, 4.614655439718045 ], [ -74.179859544750954, 4.616906986222277 ], [ -74.179938866186816, 4.61510855314936 ], [ -74.181903611669128, 4.61426123902048 ], [ -74.177292278595417, 4.609619429169037 ], [ -74.177379017827647, 4.606393042223437 ], [ -74.17865515748322, 4.605456918217642 ], [ -74.176582721418896, 4.605332343169994 ], [ -74.176120629255692, 4.603519025478693 ], [ -74.17884279830804, 4.601858495859853 ], [ -74.177432468087716, 4.596918401760278 ], [ -74.183944230809331, 4.596388701995284 ], [ -74.204062722203943, 4.6007682611217 ], [ -74.204266577154769, 4.599441432506072 ], [ -74.217123856469584, 4.61607905606251 ] ] ] } },
{ "type": "Feature", "properties": { "nombre": "PARQUE ENTRENUBES", "codigo_upz": "60", "codigo_loca": "05" }, "geometry": { "type": "Polygon", "coordinates": [ [ [ -74.093424829378833, 4.523375815150316 ], [ -74.095168954853023, 4.513735413000878 ], [ -74.101070586215357, 4.514303161662128 ], [ -74.105404145151994, 4.512227840208414 ], [ -74.102969739813616, 4.513994540936366 ], [ -74.102964559886757, 4.516645583686124 ], [ -74.105121413442106, 4.518446919509696 ], [ -74.107921268182807, 4.516530517183988 ], [ -74.107162628413434, 4.522942929059392 ], [ -74.111051674438755, 4.530874190571544 ], [ -74.107559296827645, 4.532030253448921 ], [ -74.104799432787502, 4.530616028412244 ], [ -74.102984438751818, 4.532400002521984 ], [ -74.104374704567462, 4.53535537599466 ], [ -74.106510326959267, 4.534464138662327 ], [ -74.109287307291922, 4.539384690144482 ], [ -74.10662548313671, 4.539480142208466 ], [ -74.105138506941032, 4.537624407840356 ], [ -74.10009375381992, 4.536856684945979 ], [ -74.098148264822086, 4.534945818003118 ], [ -74.103488288772994, 4.544795716069567 ], [ -74.102264850433173, 4.546000846865295 ], [ -74.098601338116239, 4.543038238959969 ], [ -74.097809346581556, 4.538734606975606 ], [ -74.096998501553912, 4.539907841037669 ], [ -74.095776644288208, 4.537998435531171 ], [ -74.093424829378833, 4.523375815150316 ] ] ] } },
{ "type": "Feature", "properties": { "nombre": "BOYACA REAL", "codigo_upz": "30", "codigo_loca": "10" }, "geometry": { "type": "Polygon", "coordinates": [ [ [ -74.089161969402127, 4.695437174324378 ], [ -74.099416599928446, 4.681051616829358 ], [ -74.107828680146255, 4.688907287076911 ], [ -74.11759206859746, 4.694719584282646 ], [ -74.110089667063775, 4.707907289336435 ], [ -74.089161969402127, 4.695437174324378 ] ] ] } },
{ "type": "Feature", "properties": { "nombre": "BOLIVIA", "codigo_upz": "72", "codigo_loca": "10" }, "geometry": { "type": "Polygon", "coordinates": [ [ [ -74.128352057878914, 4.735275308931722 ], [ -74.12665782578361, 4.736677984077656 ], [ -74.127416705454877, 4.73884627748048 ], [ -74.126536137683516, 4.739835425266278 ], [ -74.120690260510813, 4.739436803156416 ], [ -74.119649713806396, 4.73682336867004 ], [ -74.114603045571428, 4.734694599376975 ], [ -74.114026337884923, 4.732050742575142 ], [ -74.108684873002872, 4.727426957955458 ], [ -74.104091793818498, 4.725823770737752 ], [ -74.103857948744078, 4.721965890998296 ], [ -74.110089667063775, 4.707907289336435 ], [ -74.126940681957521, 4.728617991991706 ], [ -74.126129297508839, 4.730188916863226 ], [ -74.128352057878914, 4.735275308931722 ] ] ] } },
{ "type": "Feature", "properties": { "nombre": "GRAN YOMASA", "codigo_upz": "57", "codigo_loca": "05" }, "geometry": { "type": "Polygon", "coordinates": [ [ [ -74.109229884349716, 4.528955237105582 ], [ -74.107000566971735, 4.521812205373393 ], [ -74.107921268182807, 4.516530517183988 ], [ -74.105121413442106, 4.518446919509696 ], [ -74.102964559886757, 4.516645583686124 ], [ -74.102969739813616, 4.513994540936366 ], [ -74.105404145151994, 4.512227840208414 ], [ -74.101070586215357, 4.514303161662128 ], [ -74.094520895510286, 4.514084510792539 ], [ -74.0941826515472, 4.510334577450845 ], [ -74.098192954437252, 4.508893448080603 ], [ -74.098996873163173, 4.503851378835201 ], [ -74.097276604334567, 4.501623507585888 ], [ -74.095086006695894, 4.502052215797117 ], [ -74.095622289511667, 4.499309972969423 ], [ -74.098698874242999, 4.499934077765861 ], [ -74.104981542314903, 4.506410827227066 ], [ -74.113556289069862, 4.507037404383522 ], [ -74.121887456414854, 4.512021895442598 ], [ -74.122369640261425, 4.51997440955118 ], [ -74.12648248950488, 4.525635766996139 ], [ -74.124786551779081, 4.527585549277982 ], [ -74.123213278204886, 4.527459074393948 ], [ -74.122790046130461, 4.531351685779913 ], [ -74.121106806181075, 4.532051537980125 ], [ -74.121397495244167, 4.529200650220094 ], [ -74.119752961039524, 4.526932016592023 ], [ -74.113449176717239, 4.526488619295898 ], [ -74.112086278990958, 4.529495868710298 ], [ -74.109229884349716, 4.528955237105582 ] ] ] } },
{ "type": "Feature", "properties": { "nombre": "CASA BLANCA SUBA", "codigo_upz": "23", "codigo_loca": "11" }, "geometry": { "type": "Polygon", "coordinates": [ [ [ -74.078277824974904, 4.733857056906013 ], [ -74.074127376522569, 4.744608046144941 ], [ -74.075908131398194, 4.751185279805474 ], [ -74.072379858453687, 4.753949387083109 ], [ -74.072835854007948, 4.757083861423775 ], [ -74.075635177685001, 4.759081965986354 ], [ -74.068873502549678, 4.762638184046187 ], [ -74.065807061019783, 4.76045739341267 ], [ -74.065095905817202, 4.742472374743692 ], [ -74.061264897863822, 4.740841459261584 ], [ -74.064340952095023, 4.728149513009008 ], [ -74.078277824974904, 4.733857056906013 ] ] ] } },
{ "type": "Feature", "properties": { "nombre": "EL REFUGIO", "codigo_upz": "88", "codigo_loca": "02" }, "geometry": { "type": "Polygon", "coordinates": [ [ [ -74.057110324346212, 4.651842607354812 ], [ -74.052927396147695, 4.658821394261749 ], [ -74.056205921255426, 4.66094824396814 ], [ -74.04439776523698, 4.68063681652105 ], [ -74.039643188240575, 4.678155441188173 ], [ -74.038149039725837, 4.679917744337512 ], [ -74.034898029382276, 4.678471881381912 ], [ -74.036386487209128, 4.677958931744066 ], [ -74.036692826298392, 4.674847791891695 ], [ -74.039213026281232, 4.673600058041398 ], [ -74.038764677479676, 4.671412017198072 ], [ -74.037137288469282, 4.671972618466407 ], [ -74.037896981368661, 4.667919260816623 ], [ -74.042359395911745, 4.668553519353813 ], [ -74.041420670943992, 4.663716986352308 ], [ -74.044709573243878, 4.6641859993443 ], [ -74.04401791723167, 4.659577612991732 ], [ -74.046712011691696, 4.659443775705255 ], [ -74.045547437983771, 4.654400859684386 ], [ -74.04745623175927, 4.654845354198273 ], [ -74.048349981739008, 4.653259133974558 ], [ -74.047752789880917, 4.650372283843078 ], [ -74.046115330585721, 4.649009692805932 ], [ -74.048428181277728, 4.649894707355982 ], [ -74.05012193391785, 4.652361243484959 ], [ -74.050299285023499, 4.651484866668619 ], [ -74.05299957922638, 4.653072668592702 ], [ -74.054531528598858, 4.652622608205315 ], [ -74.053750682429254, 4.651744048004341 ], [ -74.054641500631618, 4.650354570244745 ], [ -74.057110324346212, 4.651842607354812 ] ] ] } },
{ "type": "Feature", "properties": { "nombre": "VERBENAL", "codigo_upz": "09", "codigo_loca": "01" }, "geometry": { "type": "MultiPolygon", "coordinates": [ [ [ [ -74.045539616813954, 4.757772534446739 ], [ -74.043188356081345, 4.77106712293584 ], [ -74.022718910346157, 4.768952234372462 ], [ -74.022992747110152, 4.760297592143071 ], [ -74.021156991256504, 4.760183075676365 ], [ -74.021084598431571, 4.757086609696691 ], [ -74.023079133004686, 4.756544973897531 ], [ -74.02269134034654, 4.755405509614009 ], [ -74.023665367062904, 4.756551368417939 ], [ -74.040435077454632, 4.757137081046499 ], [ -74.04061224234556, 4.760264467265111 ], [ -74.045539616813954, 4.757772534446739 ] ] ], [ [ [ -74.02248861820199, 4.764498568310654 ], [ -74.020037382144579, 4.764843280494588 ], [ -74.020021008222656, 4.764700908229924 ], [ -74.02248861820199, 4.764498568310654 ] ] ] ] } },
{ "type": "Feature", "properties": { "nombre": "CIUDAD SALITRE ORIENTAL", "codigo_upz": "109", "codigo_loca": "13" }, "geometry": { "type": "Polygon", "coordinates": [ [ [ -74.092445478965587, 4.636480177678784 ], [ -74.09536224362617, 4.634523379473735 ], [ -74.096515342919645, 4.638383959056305 ], [ -74.100863459367886, 4.635373025495571 ], [ -74.110445214289584, 4.645137208441652 ], [ -74.103415758157311, 4.653507284372814 ], [ -74.092445478965587, 4.636480177678784 ] ] ] } },
{ "type": "Feature", "properties": { "nombre": "APOGEO", "codigo_upz": "49", "codigo_loca": "07" }, "geometry": { "type": "Polygon", "coordinates": [ [ [ -74.152160101381014, 4.599758615701803 ], [ -74.160680917970296, 4.596193635976213 ], [ -74.167947804408826, 4.595754473752121 ], [ -74.177432468087716, 4.596918401760278 ], [ -74.17884279830804, 4.601858495859853 ], [ -74.176287626882669, 4.601025609457871 ], [ -74.175625937988173, 4.603416288480682 ], [ -74.173107309145095, 4.603217140071628 ], [ -74.174532340633704, 4.601353345052104 ], [ -74.174008695483678, 4.600169966197987 ], [ -74.170080493597766, 4.600561307994257 ], [ -74.168594050728117, 4.604245138785013 ], [ -74.163144972576433, 4.606342533359257 ], [ -74.15697875107152, 4.604082935479731 ], [ -74.152160101381014, 4.599758615701803 ] ] ] } },
{ "type": "Feature", "properties": { "nombre": "USAQUEN", "codigo_upz": "14", "codigo_loca": "01" }, "geometry": { "type": "Polygon", "coordinates": [ [ [ -74.035923258578421, 4.678927839968083 ], [ -74.048199295513172, 4.68490026960147 ], [ -74.03516160087861, 4.692856702712728 ], [ -74.033043504916648, 4.697859667858416 ], [ -74.032615307881258, 4.712743860997748 ], [ -74.024314729256204, 4.711802975142575 ], [ -74.024898931150943, 4.707334712013711 ], [ -74.021745185851188, 4.70693504635304 ], [ -74.020663464412962, 4.705418265337646 ], [ -74.022829755446892, 4.702636155026044 ], [ -74.02461108361193, 4.70328273658619 ], [ -74.025409292205552, 4.702075130343994 ], [ -74.026057269472247, 4.699429945052088 ], [ -74.023977339843839, 4.695870570489933 ], [ -74.024595324317715, 4.694796898622537 ], [ -74.022045719216692, 4.693529633232965 ], [ -74.022320518999805, 4.691591997069497 ], [ -74.024019260336289, 4.691446342746227 ], [ -74.024819466508504, 4.687332277642413 ], [ -74.02281340077937, 4.686866516278712 ], [ -74.026728740551022, 4.683562476067957 ], [ -74.023072204271827, 4.68272219653161 ], [ -74.025248479468303, 4.68186681942152 ], [ -74.025800722078245, 4.679947029437986 ], [ -74.02781851842191, 4.680050711124161 ], [ -74.029216780391266, 4.681756801053262 ], [ -74.029459513033331, 4.680313359740686 ], [ -74.035923258578421, 4.678927839968083 ] ] ] } },
{ "type": "Feature", "properties": { "nombre": "SAN BLAS", "codigo_upz": "32", "codigo_loca": "04" }, "geometry": { "type": "Polygon", "coordinates": [ [ [ -74.091966707062596, 4.55433429842602 ], [ -74.085587257869818, 4.569314261102996 ], [ -74.078018720231597, 4.573455772954953 ], [ -74.080918201810476, 4.580917380774264 ], [ -74.078915135977354, 4.582519843996241 ], [ -74.074734037233171, 4.576603909999852 ], [ -74.072888335645331, 4.577534346421785 ], [ -74.076144379546605, 4.574020528803636 ], [ -74.075324453393563, 4.570825280271396 ], [ -74.074333015850954, 4.569360934305575 ], [ -74.071732890372886, 4.570724336962739 ], [ -74.070090620304484, 4.570142548755186 ], [ -74.070898694900364, 4.56919952491893 ], [ -74.06842639179844, 4.567885468209995 ], [ -74.068065569287242, 4.564529430639398 ], [ -74.071789898750211, 4.563661079512087 ], [ -74.072528599422824, 4.565598684865145 ], [ -74.074468855564646, 4.561944964448045 ], [ -74.075350417556635, 4.567463205371641 ], [ -74.077665040880888, 4.567873397275764 ], [ -74.077943910267393, 4.566116171730595 ], [ -74.075318603220026, 4.562459584848382 ], [ -74.077033848557733, 4.56365189495031 ], [ -74.076926922912762, 4.561116671969333 ], [ -74.079136608415396, 4.557082766217248 ], [ -74.081118439025261, 4.557784251220278 ], [ -74.079960979316397, 4.554664882182417 ], [ -74.081125168206, 4.552640699215448 ], [ -74.075954386129297, 4.548934607094886 ], [ -74.076376544621382, 4.54808955702145 ], [ -74.083508386260306, 4.547472704238181 ], [ -74.086364412848155, 4.549518300314006 ], [ -74.08689938594857, 4.551835775454022 ], [ -74.088570898294677, 4.547785958278026 ], [ -74.091966707062596, 4.55433429842602 ] ] ] } },
{ "type": "Feature", "properties": { "nombre": "LA MACARENA", "codigo_upz": "92", "codigo_loca": "03" }, "geometry": { "type": "Polygon", "coordinates": [ [ [ -74.065235744254636, 4.620058473628879 ], [ -74.060876607184539, 4.617559002432554 ], [ -74.06278800061618, 4.613453569025837 ], [ -74.063526815953125, 4.606369479489452 ], [ -74.061095123687195, 4.602964920100728 ], [ -74.059287141603519, 4.602009305567184 ], [ -74.059088777361723, 4.6013243602723 ], [ -74.059761795051415, 4.600612500000676 ], [ -74.063461101473692, 4.598997896196816 ], [ -74.064313412183139, 4.59946453036962 ], [ -74.064523112371987, 4.597396598167985 ], [ -74.065151961991589, 4.597090733376705 ], [ -74.064416935276839, 4.599647052289559 ], [ -74.059259242525968, 4.601396248737256 ], [ -74.062314379977892, 4.603264551876885 ], [ -74.06822531289518, 4.603111683681855 ], [ -74.065863772360586, 4.607172942264217 ], [ -74.067843155329598, 4.609702200962684 ], [ -74.065235744254636, 4.620058473628879 ] ] ] } },
{ "type": "Feature", "properties": { "nombre": "SAN CRISTOBAL NORTE", "codigo_upz": "11", "codigo_loca": "01" }, "geometry": { "type": "Polygon", "coordinates": [ [ [ -74.032112563044052, 4.731141545203116 ], [ -74.031814376629598, 4.742900509155353 ], [ -74.022465414896701, 4.741013729949687 ], [ -74.022459664532178, 4.746508351679303 ], [ -74.019689178872554, 4.74679630440112 ], [ -74.01763905460399, 4.745953541121651 ], [ -74.01828381937176, 4.743664347043529 ], [ -74.014699188575534, 4.742422163040437 ], [ -74.015627409206786, 4.741542361332275 ], [ -74.018780740923063, 4.742217955622935 ], [ -74.01897921729099, 4.740906284893033 ], [ -74.017526952004047, 4.739115111783055 ], [ -74.018238830365462, 4.736848889830239 ], [ -74.012491162585974, 4.734835659362872 ], [ -74.013448509788461, 4.731630593259128 ], [ -74.011539592231571, 4.730942550082045 ], [ -74.013628467043986, 4.728722351942364 ], [ -74.021048593227164, 4.733187449646388 ], [ -74.020491042389594, 4.729502809689039 ], [ -74.023966443513004, 4.73119240202503 ], [ -74.024608439585492, 4.727581413393003 ], [ -74.032112563044052, 4.731141545203116 ] ] ] } },
{ "type": "Feature", "properties": { "nombre": "SAN JOSE", "codigo_upz": "36", "codigo_loca": "18" }, "geometry": { "type": "Polygon", "coordinates": [ [ [ -74.094582458140309, 4.575796995908364 ], [ -74.104585954807987, 4.564668384705011 ], [ -74.107135478991836, 4.565739661780222 ], [ -74.109553133738544, 4.569030961658244 ], [ -74.110914776462181, 4.572105454969337 ], [ -74.109779899163328, 4.57341074407182 ], [ -74.112658061544423, 4.574181105127459 ], [ -74.115004171396251, 4.576651131523022 ], [ -74.102494171738599, 4.581260059559199 ], [ -74.094582458140309, 4.575796995908364 ] ] ] } },
{ "type": "Feature", "properties": { "nombre": "MARCO FIDEL SUAREZ", "codigo_upz": "53", "codigo_loca": "18" }, "geometry": { "type": "Polygon", "coordinates": [ [ [ -74.104585954807987, 4.564668384705011 ], [ -74.109780627349835, 4.562521631468694 ], [ -74.1156503505633, 4.566069254983836 ], [ -74.12543881358846, 4.569075602693346 ], [ -74.122967869680167, 4.57494446439179 ], [ -74.115004171396251, 4.576651131523022 ], [ -74.112658061544423, 4.574181105127459 ], [ -74.109779899163328, 4.57341074407182 ], [ -74.110914776462181, 4.572105454969337 ], [ -74.109553133738544, 4.569030961658244 ], [ -74.107135478991836, 4.565739661780222 ], [ -74.104585954807987, 4.564668384705011 ] ] ] } },
{ "type": "Feature", "properties": { "nombre": "LA GLORIA", "codigo_upz": "50", "codigo_loca": "04" }, "geometry": { "type": "Polygon", "coordinates": [ [ [ -74.091879342164034, 4.554273842811971 ], [ -74.088570898294677, 4.547785958278026 ], [ -74.086884396096693, 4.551835844718262 ], [ -74.086364412848155, 4.549518300314006 ], [ -74.083508386260306, 4.547472704238181 ], [ -74.075456612407663, 4.547617709531699 ], [ -74.07721161942645, 4.534375905483185 ], [ -74.079616335122665, 4.533139794585617 ], [ -74.079883060838853, 4.530883622333485 ], [ -74.081837966121938, 4.529477332158611 ], [ -74.08131679303348, 4.53235946287425 ], [ -74.083995678768076, 4.534631107737606 ], [ -74.083744900595846, 4.537302675295048 ], [ -74.088257162975665, 4.541664294549004 ], [ -74.101160643002004, 4.548806184574433 ], [ -74.103179628822559, 4.546926327586306 ], [ -74.10176154265865, 4.555905400023668 ], [ -74.106271681977049, 4.563896822405269 ], [ -74.104804759880238, 4.564506395122153 ], [ -74.102154220574306, 4.560958709873971 ], [ -74.091879342164034, 4.554273842811971 ] ] ] } },
{ "type": "Feature", "properties": { "nombre": "CIUDAD SALITRE OCCIDENTAL", "codigo_upz": "110", "codigo_loca": "09" }, "geometry": { "type": "Polygon", "coordinates": [ [ [ -74.111632509009794, 4.666399850922652 ], [ -74.103415758157311, 4.653507284372814 ], [ -74.110445214289584, 4.645137208441652 ], [ -74.120693156370947, 4.655852272278683 ], [ -74.111632509009794, 4.666399850922652 ] ] ] } },
{ "type": "Feature", "properties": { "nombre": "LA URIBE", "codigo_upz": "10", "codigo_loca": "01" }, "geometry": { "type": "Polygon", "coordinates": [ [ [ -74.046676556717514, 4.75134423072007 ], [ -74.045539616813954, 4.757772534446739 ], [ -74.04061224234556, 4.760264467265111 ], [ -74.040435077454632, 4.757137081046499 ], [ -74.023665367062904, 4.756551368417939 ], [ -74.023127577057537, 4.755346907532624 ], [ -74.022662402539012, 4.756928575157498 ], [ -74.021096050198452, 4.757049103553439 ], [ -74.018604549270975, 4.755446470422218 ], [ -74.020032598884839, 4.753550822144711 ], [ -74.017557005445909, 4.751777529279109 ], [ -74.019445942907453, 4.749321166774853 ], [ -74.016616192311503, 4.747906756879344 ], [ -74.018074348277381, 4.747747408947182 ], [ -74.017666343764944, 4.746002712617626 ], [ -74.022459664532178, 4.746508351679303 ], [ -74.022465414896701, 4.741013729949687 ], [ -74.031703812214602, 4.742897132620763 ], [ -74.031573320709668, 4.748315714388211 ], [ -74.046676556717514, 4.75134423072007 ] ] ] } },
{ "type": "Feature", "properties": { "nombre": "VENECIA", "codigo_upz": "42", "codigo_loca": "06" }, "geometry": { "type": "Polygon", "coordinates": [ [ [ -74.152263703426812, 4.59568689721456 ], [ -74.14043263177976, 4.595364255418528 ], [ -74.128290446582184, 4.5926532191953 ], [ -74.12860974278864, 4.586644803514364 ], [ -74.130875117064363, 4.585899687614575 ], [ -74.125457910247064, 4.569024272433997 ], [ -74.129727710713823, 4.570552027422678 ], [ -74.140626531455439, 4.567002402097819 ], [ -74.140460493354396, 4.568326329277964 ], [ -74.1417097079743, 4.568845485756203 ], [ -74.140460455333681, 4.570469038921984 ], [ -74.143245018717366, 4.572827116764205 ], [ -74.140829063471259, 4.575417032045837 ], [ -74.141995719864312, 4.577200794691922 ], [ -74.144839506393041, 4.573010683118085 ], [ -74.146368672519472, 4.574754188457123 ], [ -74.147703276396896, 4.573990364077326 ], [ -74.147058125216304, 4.576494223932187 ], [ -74.1483552051603, 4.578080168256245 ], [ -74.148717017526522, 4.576470225568352 ], [ -74.149990242569672, 4.578326786190094 ], [ -74.149314336801723, 4.581454089677937 ], [ -74.147215858930466, 4.581947290684693 ], [ -74.148421533469161, 4.583309790009044 ], [ -74.151114270298152, 4.582574922657381 ], [ -74.15059129751107, 4.584521161935774 ], [ -74.15215505810022, 4.58540767154597 ], [ -74.15049479803956, 4.587985611453788 ], [ -74.152647901195465, 4.588696557593432 ], [ -74.15175791886675, 4.58741747087111 ], [ -74.153069740011773, 4.586379133494901 ], [ -74.153321124942579, 4.587904403945779 ], [ -74.156956505058901, 4.588703540757041 ], [ -74.154259671952445, 4.591257837165601 ], [ -74.151388502683631, 4.591400206336099 ], [ -74.152054617034494, 4.593044122046807 ], [ -74.154187396538177, 4.592856341288142 ], [ -74.152263703426812, 4.59568689721456 ] ] ] } },
{ "type": "Feature", "properties": { "nombre": "PARQUE SALITRE", "codigo_upz": "103", "codigo_loca": "12" }, "geometry": { "type": "Polygon", "coordinates": [ [ [ -74.077504745436499, 4.658485637435668 ], [ -74.078319348654119, 4.651994479084656 ], [ -74.083613208508311, 4.653346281342456 ], [ -74.093715415656419, 4.666065228365126 ], [ -74.089251393836847, 4.67189012503939 ], [ -74.082381831147529, 4.661321781478939 ], [ -74.077504745436499, 4.658485637435668 ] ] ] } },
{ "type": "Feature", "properties": { "nombre": "LOS ANDES", "codigo_upz": "21", "codigo_loca": "12" }, "geometry": { "type": "Polygon", "coordinates": [ [ [ -74.065156777913529, 4.68901556074426 ], [ -74.057247030882877, 4.686836295669481 ], [ -74.058589940866625, 4.678924000067809 ], [ -74.06739283110457, 4.67392978402509 ], [ -74.07532204675276, 4.67917034245102 ], [ -74.079022765522339, 4.684006143180635 ], [ -74.071706514983859, 4.68917045172502 ], [ -74.065156777913529, 4.68901556074426 ] ] ] } },
{ "type": "Feature", "properties": { "nombre": "DIANA TURBAY", "codigo_upz": "55", "codigo_loca": "18" }, "geometry": { "type": "Polygon", "coordinates": [ [ [ -74.105580279854465, 4.552870163790813 ], [ -74.102297434081393, 4.545970340531535 ], [ -74.103713220468663, 4.545517970808509 ], [ -74.10314753524932, 4.543932137837999 ], [ -74.098148264822086, 4.534945818003118 ], [ -74.10009375381992, 4.536856684945979 ], [ -74.102927645187023, 4.536512964634269 ], [ -74.10662548313671, 4.539480142208466 ], [ -74.108796323511427, 4.539359588987002 ], [ -74.112382413767989, 4.541682809040618 ], [ -74.112567496715826, 4.5403771084999 ], [ -74.116328936805161, 4.540643764519727 ], [ -74.120127450965754, 4.544314829165055 ], [ -74.114861578116816, 4.546535171929216 ], [ -74.114191901890194, 4.549341612959015 ], [ -74.110146819895562, 4.552522997922959 ], [ -74.105580279854465, 4.552870163790813 ] ] ] } },
{ "type": "Feature", "properties": { "nombre": "BAVARIA", "codigo_upz": "113", "codigo_loca": "08" }, "geometry": { "type": "Polygon", "coordinates": [ [ [ -74.13777406440083, 4.630478942715875 ], [ -74.13598907551328, 4.639007356640815 ], [ -74.128568147979834, 4.64773414846554 ], [ -74.125655105547693, 4.64523839289961 ], [ -74.123812326570118, 4.640868655958295 ], [ -74.118298639861436, 4.637411585408282 ], [ -74.122414845457342, 4.629032124434762 ], [ -74.13777406440083, 4.630478942715875 ] ] ] } },
{ "type": "Feature", "properties": { "nombre": "PARQUE ENTRENUBES", "codigo_upz": "60", "codigo_loca": "18" }, "geometry": { "type": "Polygon", "coordinates": [ [ [ -74.103179628822559, 4.546926327586306 ], [ -74.105636136250595, 4.55210611897138 ], [ -74.104875375634194, 4.561966023931978 ], [ -74.10176154265865, 4.555905400023668 ], [ -74.103179628822559, 4.546926327586306 ] ] ] } },
{ "type": "Feature", "properties": { "nombre": "PARDO RUBIO", "codigo_upz": "90", "codigo_loca": "02" }, "geometry": { "type": "Polygon", "coordinates": [ [ [ -74.047084848663346, 4.649028413751783 ], [ -74.048895912327382, 4.648686315328787 ], [ -74.04693139456792, 4.647279964057122 ], [ -74.049262961763006, 4.644812189530062 ], [ -74.048396926701486, 4.642325646879597 ], [ -74.05267526863328, 4.642062502714451 ], [ -74.052168018688278, 4.638169957850077 ], [ -74.053954523255541, 4.63758441206834 ], [ -74.056534582302703, 4.639538140333049 ], [ -74.057311769391433, 4.638773989337576 ], [ -74.053068851096342, 4.636533309900383 ], [ -74.054376188258047, 4.635489860725095 ], [ -74.056795052704416, 4.637552109375352 ], [ -74.058013241683057, 4.634733024880701 ], [ -74.055816388345306, 4.63454988743188 ], [ -74.056038888383739, 4.631799241088574 ], [ -74.057682914092794, 4.632321352090544 ], [ -74.057648586675697, 4.630622213394695 ], [ -74.058633366891812, 4.632642028028074 ], [ -74.059286721952176, 4.629387559632955 ], [ -74.060572162848828, 4.628776364461711 ], [ -74.054814719884305, 4.626954771133273 ], [ -74.055543308919823, 4.625338010734933 ], [ -74.057855671374355, 4.625708308258687 ], [ -74.05533365027371, 4.622748882565014 ], [ -74.059291844917126, 4.626294440325345 ], [ -74.060935507300016, 4.625752714332878 ], [ -74.062350543576969, 4.628748348129013 ], [ -74.061850617297196, 4.631040985112207 ], [ -74.064224721943773, 4.631449617750713 ], [ -74.061403717181804, 4.645036473528019 ], [ -74.057110324346212, 4.651842607354812 ], [ -74.054641500631618, 4.650354570244745 ], [ -74.053750682429254, 4.651744048004341 ], [ -74.054706964635827, 4.652321506434746 ], [ -74.053344457769199, 4.653054639940484 ], [ -74.050299285023499, 4.651484866668619 ], [ -74.05012193391785, 4.652361243484959 ], [ -74.047084848663346, 4.649028413751783 ] ] ] } },
{ "type": "Feature", "properties": { "nombre": "LUCERO", "codigo_upz": "67", "codigo_loca": "19" }, "geometry": { "type": "Polygon", "coordinates": [ [ [ -74.134129406190908, 4.55645904186014 ], [ -74.135115022010396, 4.552349209816888 ], [ -74.136704546365308, 4.552108147918987 ], [ -74.137792794679982, 4.545696140616677 ], [ -74.141077503521586, 4.545655455677373 ], [ -74.143210169629839, 4.543845896231936 ], [ -74.143425889675385, 4.541689628516065 ], [ -74.147702477860364, 4.541443348603418 ], [ -74.149057227623217, 4.538842740095656 ], [ -74.151586884917464, 4.538657511934092 ], [ -74.151316237317488, 4.537669452589187 ], [ -74.159420677657067, 4.53830177184456 ], [ -74.164689259567481, 4.541887984701522 ], [ -74.162055287258354, 4.546710303878474 ], [ -74.158446443567371, 4.547566406664642 ], [ -74.166063910263759, 4.549999204942723 ], [ -74.157042203692583, 4.556973129020097 ], [ -74.156077599244625, 4.55897234239699 ], [ -74.152990159187723, 4.559220579699202 ], [ -74.152102959066951, 4.556742065362446 ], [ -74.149158229153457, 4.559691679434892 ], [ -74.142680922361336, 4.556499826090875 ], [ -74.143388073522459, 4.558852998655678 ], [ -74.140996683700948, 4.559878518775753 ], [ -74.13834723917391, 4.56363303226727 ], [ -74.133877283012822, 4.560712536729942 ], [ -74.133987083715581, 4.557463268073877 ], [ -74.135258322204876, 4.557141269458584 ], [ -74.134129406190908, 4.55645904186014 ] ] ] } },
{ "type": "Feature", "properties": { "nombre": "LAS MARGARITAS", "codigo_upz": "83", "codigo_loca": "08" }, "geometry": { "type": "Polygon", "coordinates": [ [ [ -74.17077334240058, 4.628482094893276 ], [ -74.177057471444144, 4.625847683825921 ], [ -74.185576912543667, 4.646833095597771 ], [ -74.182144474651224, 4.649656593166902 ], [ -74.17077334240058, 4.628482094893276 ] ] ] } },
{ "type": "Feature", "properties": { "nombre": "TEUSAQUILLO", "codigo_upz": "101", "codigo_loca": "13" }, "geometry": { "type": "Polygon", "coordinates": [ [ [ -74.067067363058271, 4.636440598115249 ], [ -74.069711710362085, 4.621638520735444 ], [ -74.072829117630974, 4.615417331944903 ], [ -74.07882820710833, 4.62389149407133 ], [ -74.083198946860264, 4.624698289489915 ], [ -74.080291605908471, 4.628852898184635 ], [ -74.079530897630576, 4.634601068636012 ], [ -74.07539320361343, 4.63381327355865 ], [ -74.073914563478041, 4.637627194400213 ], [ -74.067067363058271, 4.636440598115249 ] ] ] } },
{ "type": "Feature", "properties": { "nombre": "MARRUECOS", "codigo_upz": "54", "codigo_loca": "18" }, "geometry": { "type": "Polygon", "coordinates": [ [ [ -74.106271681977049, 4.563896822405269 ], [ -74.104875375634194, 4.561966023931978 ], [ -74.104916263689859, 4.553547585982432 ], [ -74.110146819895562, 4.552522997922959 ], [ -74.114191901890194, 4.549341612959015 ], [ -74.114861578116816, 4.546535171929216 ], [ -74.120127450965754, 4.544314829165055 ], [ -74.121148083162751, 4.54542955769065 ], [ -74.121659206912739, 4.556489458998921 ], [ -74.126678015671615, 4.566672570966794 ], [ -74.12543881358846, 4.569075602693346 ], [ -74.1156503505633, 4.566069254983836 ], [ -74.110032141216124, 4.562587959935064 ], [ -74.106271681977049, 4.563896822405269 ] ] ] } },
{ "type": "Feature", "properties": { "nombre": "TINTAL NORTE", "codigo_upz": "78", "codigo_loca": "08" }, "geometry": { "type": "Polygon", "coordinates": [ [ [ -74.154012647300036, 4.663952524427639 ], [ -74.151132737651736, 4.664172222788724 ], [ -74.144804882172608, 4.661227500529819 ], [ -74.141273269618409, 4.66299501664611 ], [ -74.137112100890391, 4.65807250891633 ], [ -74.146992815857132, 4.649109932530846 ], [ -74.154496034060173, 4.656224703689856 ], [ -74.158697678339436, 4.65187133753941 ], [ -74.159266382201238, 4.652827679533582 ], [ -74.164596230359876, 4.649846358122885 ], [ -74.171243853438426, 4.657048126554548 ], [ -74.16747832514892, 4.656411708053205 ], [ -74.166326140143624, 4.659787474151796 ], [ -74.163476217583749, 4.658759352602726 ], [ -74.162543900549906, 4.662991244369155 ], [ -74.157079624491644, 4.661530151323404 ], [ -74.154012647300036, 4.663952524427639 ] ] ] } },
{ "type": "Feature", "properties": { "nombre": "GALERIAS", "codigo_upz": "100", "codigo_loca": "13" }, "geometry": { "type": "Polygon", "coordinates": [ [ [ -74.064634740298402, 4.649647361367094 ], [ -74.067067363058271, 4.636440598115249 ], [ -74.073914563478041, 4.637627194400213 ], [ -74.07539320361343, 4.63381327355865 ], [ -74.079530897630576, 4.634601068636012 ], [ -74.078319348654119, 4.651994479084656 ], [ -74.064634740298402, 4.649647361367094 ] ] ] } },
{ "type": "Feature", "properties": { "nombre": "20 DE JULIO", "codigo_upz": "34", "codigo_loca": "04" }, "geometry": { "type": "Polygon", "coordinates": [ [ [ -74.104804759880238, 4.564506395122153 ], [ -74.094582458140309, 4.575796995908364 ], [ -74.09045579166883, 4.571672949664039 ], [ -74.085309392509771, 4.569581534486125 ], [ -74.091966707062596, 4.55433429842602 ], [ -74.102154220574306, 4.560958709873971 ], [ -74.104804759880238, 4.564506395122153 ] ] ] } },
{ "type": "Feature", "properties": { "nombre": "LA ESMERALDA", "codigo_upz": "106", "codigo_loca": "13" }, "geometry": { "type": "Polygon", "coordinates": [ [ [ -74.078319348654119, 4.651994479084656 ], [ -74.078953556859446, 4.642714839621528 ], [ -74.08409831220618, 4.645173460635534 ], [ -74.088984936171073, 4.63992100982057 ], [ -74.095580633178329, 4.650147537541094 ], [ -74.085814318175878, 4.655351205928125 ], [ -74.083613208508311, 4.653346281342456 ], [ -74.078319348654119, 4.651994479084656 ] ] ] } },
{ "type": "Feature", "properties": { "nombre": "SAGRADO CORAZON", "codigo_upz": "91", "codigo_loca": "03" }, "geometry": { "type": "Polygon", "coordinates": [ [ [ -74.066020730776842, 4.626042621673958 ], [ -74.055161082668548, 4.622716726774603 ], [ -74.057266920517378, 4.622730010445288 ], [ -74.057307686143332, 4.621566821608122 ], [ -74.060794093732397, 4.619396615172288 ], [ -74.060876607184539, 4.617559002432554 ], [ -74.065235744254636, 4.620058473628879 ], [ -74.067839066196441, 4.609687423662132 ], [ -74.072829117630974, 4.615417331944903 ], [ -74.069892089153399, 4.62108190969723 ], [ -74.068407209744919, 4.628803973501282 ], [ -74.066020730776842, 4.626042621673958 ] ] ] } },
{ "type": "Feature", "properties": { "nombre": "LAS CRUCES", "codigo_upz": "95", "codigo_loca": "03" }, "geometry": { "type": "Polygon", "coordinates": [ [ [ -74.089004896290163, 4.591819545953081 ], [ -74.084698940732366, 4.597063803202105 ], [ -74.081139025269323, 4.595067068974202 ], [ -74.080579170405329, 4.591633355311713 ], [ -74.076431727800781, 4.590197338882467 ], [ -74.078071777406308, 4.582927944724645 ], [ -74.07894420265238, 4.582509818332658 ], [ -74.083459599489728, 4.588327175374569 ], [ -74.089004896290163, 4.591819545953081 ] ] ] } },
{ "type": "Feature", "properties": { "nombre": "CIUDAD MONTES", "codigo_upz": "40", "codigo_loca": "16" }, "geometry": { "type": "Polygon", "coordinates": [ [ [ -74.129060275808243, 4.609326539170484 ], [ -74.10581563193945, 4.618452062404828 ], [ -74.103316033034943, 4.611351883663533 ], [ -74.097883855529048, 4.606548132513189 ], [ -74.107073004967546, 4.598243987639957 ], [ -74.113272034987816, 4.595877866743823 ], [ -74.129060275808243, 4.609326539170484 ] ] ] } },
{ "type": "Feature", "properties": { "nombre": "AEROPUERTO EL DORADO", "codigo_upz": "117", "codigo_loca": "09" }, "geometry": { "type": "Polygon", "coordinates": [ [ [ -74.155469578770806, 4.717982200426238 ], [ -74.12037818235116, 4.692221161009861 ], [ -74.118400273846333, 4.688651399885239 ], [ -74.124650903047282, 4.684803915170933 ], [ -74.133081867310253, 4.691178506475652 ], [ -74.137115503035645, 4.686165033886933 ], [ -74.134950179767984, 4.684549249319995 ], [ -74.135997980948517, 4.683216733457641 ], [ -74.165277594539731, 4.705405879957918 ], [ -74.161575332314399, 4.705995215428334 ], [ -74.16215449347628, 4.707300415265628 ], [ -74.160874399157436, 4.708018161171942 ], [ -74.155415403240326, 4.708698058740639 ], [ -74.155469578770806, 4.717982200426238 ] ] ] } },
{ "type": "Feature", "properties": { "nombre": "MONTE BLANCO", "codigo_upz": "64", "codigo_loca": "19" }, "geometry": { "type": "MultiPolygon", "coordinates": [ [ [ [ -74.120493844660587, 4.490581771922035 ], [ -74.122609075338417, 4.482364676541943 ], [ -74.128539235069681, 4.475274542683295 ], [ -74.130327828311195, 4.476354822608635 ], [ -74.128220486155186, 4.477098322626598 ], [ -74.1281385735778, 4.489580175842762 ], [ -74.131056295432799, 4.491194952265446 ], [ -74.133821377178478, 4.488590737157941 ], [ -74.137013520698886, 4.487952826133825 ], [ -74.139908460778372, 4.489465730383046 ], [ -74.143721449773096, 4.488995314100639 ], [ -74.144675480454865, 4.489603514508901 ], [ -74.143857159217816, 4.491187746348638 ], [ -74.141774572731933, 4.490980091371471 ], [ -74.14133472932842, 4.493909234753243 ], [ -74.147615248510604, 4.493177678048794 ], [ -74.147763847025217, 4.495457468155372 ], [ -74.146345017919742, 4.495997707095982 ], [ -74.147509534355891, 4.495983593152548 ], [ -74.147820528976936, 4.499964224946511 ], [ -74.139487877119294, 4.504181108030736 ], [ -74.138352499272386, 4.506758471187008 ], [ -74.13610953348028, 4.508057143761804 ], [ -74.136498372004397, 4.508945070532189 ], [ -74.134897319731991, 4.509584999279123 ], [ -74.136766386893555, 4.509850015056514 ], [ -74.136582414037591, 4.514086920791689 ], [ -74.131978994631268, 4.511313086370082 ], [ -74.132668184430102, 4.523908652733015 ], [ -74.128994409555546, 4.524405568004731 ], [ -74.125610315136996, 4.520161546378202 ], [ -74.127312201872414, 4.510692527465326 ], [ -74.126737308970135, 4.506211813094999 ], [ -74.128455701613177, 4.504475796515155 ], [ -74.126845151022181, 4.501319824735815 ], [ -74.12559898151828, 4.501797388398564 ], [ -74.122738949724678, 4.499698838764581 ], [ -74.121349192287752, 4.492998251810139 ], [ -74.123121106457518, 4.49150553868436 ], [ -74.120493844660587, 4.490581771922035 ] ] ], [ [ [ -74.144983970587361, 4.507753065799756 ], [ -74.147263643109852, 4.507473076276932 ], [ -74.147488272668596, 4.50592859538929 ], [ -74.150177335272133, 4.507296542186646 ], [ -74.149158866981338, 4.510723564828606 ], [ -74.146626216481209, 4.510212813938042 ], [ -74.14690756168082, 4.509138317847254 ], [ -74.143079001477446, 4.508729023480801 ], [ -74.143196895287986, 4.506852129568774 ], [ -74.145938329594856, 4.506086842393748 ], [ -74.144983970587361, 4.507753065799756 ] ] ] ] } },
{ "type": "Feature", "properties": { "nombre": "TIMIZA", "codigo_upz": "48", "codigo_loca": "08" }, "geometry": { "type": "Polygon", "coordinates": [ [ [ -74.152160101381014, 4.599758615701803 ], [ -74.15697875107152, 4.604082935479731 ], [ -74.163144972576433, 4.606342533359257 ], [ -74.168594050728117, 4.604245138785013 ], [ -74.170080493597766, 4.600561307994257 ], [ -74.174008695483678, 4.600169966197987 ], [ -74.174532340633704, 4.601353345052104 ], [ -74.172889275016885, 4.603154717796475 ], [ -74.17554028887065, 4.603424130116735 ], [ -74.175952846831748, 4.601244403536231 ], [ -74.177572304304732, 4.600955298842956 ], [ -74.176112563570499, 4.604404541922728 ], [ -74.178607081419742, 4.605261087883888 ], [ -74.177379017827647, 4.606393042223437 ], [ -74.178360824575989, 4.611206172923013 ], [ -74.174712831339733, 4.61451650384322 ], [ -74.171914029192891, 4.613388485105808 ], [ -74.152983934590836, 4.617039403137044 ], [ -74.145636780771653, 4.606271656001232 ], [ -74.146713259244677, 4.602054965151225 ], [ -74.152160101381014, 4.599758615701803 ] ] ] } },
{ "type": "Feature", "properties": { "nombre": "LOS ALCAZARES", "codigo_upz": "98", "codigo_loca": "12" }, "geometry": { "type": "Polygon", "coordinates": [ [ [ -74.058589940866625, 4.678924000067809 ], [ -74.064634740298402, 4.649647361367094 ], [ -74.078319348654119, 4.651994479084656 ], [ -74.075259431782385, 4.665557067769808 ], [ -74.068278495446961, 4.673271777636003 ], [ -74.058589940866625, 4.678924000067809 ] ] ] } },
{ "type": "Feature", "properties": { "nombre": "EL RINCON", "codigo_upz": "28", "codigo_loca": "11" }, "geometry": { "type": "Polygon", "coordinates": [ [ [ -74.103438116924323, 4.723311538174758 ], [ -74.105794120515725, 4.751525339370545 ], [ -74.096191027140847, 4.746576722716261 ], [ -74.086440558240369, 4.738423055697172 ], [ -74.078680482021753, 4.734089502758347 ], [ -74.084106129285246, 4.733079740750753 ], [ -74.082169486965228, 4.726586055244438 ], [ -74.082813095062278, 4.720729482498489 ], [ -74.085265686789626, 4.718583991403734 ], [ -74.084486121591851, 4.717151021973737 ], [ -74.086705685349813, 4.717438805594241 ], [ -74.086941178113989, 4.716279447993036 ], [ -74.09280060375238, 4.717055823361112 ], [ -74.093442279265389, 4.712888130580618 ], [ -74.096684456539492, 4.717380016286956 ], [ -74.10013783276473, 4.718340517197636 ], [ -74.100564151817522, 4.721555837379664 ], [ -74.103438116924323, 4.723311538174758 ] ] ] } },
{ "type": "Feature", "properties": { "nombre": "SAN JOSE DE BAVARIA", "codigo_upz": "17", "codigo_loca": "11" }, "geometry": { "type": "Polygon", "coordinates": [ [ [ -74.043707969310134, 4.768129190047898 ], [ -74.046676556717514, 4.75134423072007 ], [ -74.057442534029704, 4.753726569554538 ], [ -74.068830704513999, 4.7626235606165 ], [ -74.072883396761185, 4.761095042125659 ], [ -74.067651056486554, 4.769325370465124 ], [ -74.062819436827127, 4.772080786996741 ], [ -74.059190440532888, 4.769449121094613 ], [ -74.05554449631002, 4.771380505386911 ], [ -74.043707969310134, 4.768129190047898 ] ] ] } },
{ "type": "Feature", "properties": { "nombre": "NIZA", "codigo_upz": "24", "codigo_loca": "11" }, "geometry": { "type": "Polygon", "coordinates": [ [ [ -74.078680482021753, 4.734089502758347 ], [ -74.057243283444805, 4.725457709056366 ], [ -74.061465912304698, 4.719125593938915 ], [ -74.061951440800442, 4.716039889230144 ], [ -74.064224509110431, 4.714477564754088 ], [ -74.065312089448383, 4.704429803798876 ], [ -74.06826340192184, 4.701464387710291 ], [ -74.0757864166643, 4.701817802446002 ], [ -74.08119820837193, 4.703716810620453 ], [ -74.084807152505547, 4.707966346461914 ], [ -74.080757625614481, 4.710728543360583 ], [ -74.089208655620254, 4.714469797605291 ], [ -74.089722147638412, 4.716667064708807 ], [ -74.084486121591851, 4.717151021973737 ], [ -74.085265686789626, 4.718583991403734 ], [ -74.082449571502224, 4.72173437750256 ], [ -74.082169486965228, 4.726586055244438 ], [ -74.083312688309277, 4.728097663786216 ], [ -74.082493406675525, 4.730236536634008 ], [ -74.084037309611745, 4.731431593781382 ], [ -74.084025653629809, 4.733264125750064 ], [ -74.078680482021753, 4.734089502758347 ] ] ] } },
{ "type": "Feature", "properties": { "nombre": "AMERICAS", "codigo_upz": "44", "codigo_loca": "08" }, "geometry": { "type": "Polygon", "coordinates": [ [ [ -74.148406562248539, 4.631416659713164 ], [ -74.122414845457342, 4.629032124434762 ], [ -74.129060299229991, 4.609326553634244 ], [ -74.133816485317453, 4.61226353956511 ], [ -74.13926215174908, 4.618503304559743 ], [ -74.141856548030361, 4.619130181943154 ], [ -74.14636425012614, 4.624080619918728 ], [ -74.145282757460464, 4.626717096346384 ], [ -74.148406562248539, 4.631416659713164 ] ] ] } },
{ "type": "Feature", "properties": { "nombre": "TUNJUELITO", "codigo_upz": "62", "codigo_loca": "06" }, "geometry": { "type": "Polygon", "coordinates": [ [ [ -74.127752998842254, 4.570258528817265 ], [ -74.125457910247064, 4.569024272433997 ], [ -74.126632981725194, 4.566491779623833 ], [ -74.121465787858398, 4.55563246542966 ], [ -74.121148083162751, 4.54542955769065 ], [ -74.123868441958138, 4.544489566727393 ], [ -74.129977843488518, 4.546037804724977 ], [ -74.126939815637414, 4.547216575213109 ], [ -74.12630417997066, 4.546122843826611 ], [ -74.125363668507177, 4.547505708900131 ], [ -74.127097574599119, 4.54961614070311 ], [ -74.131969634533789, 4.549550765827054 ], [ -74.131969192101863, 4.55263831486953 ], [ -74.133887777841949, 4.555187150891271 ], [ -74.133191052050336, 4.556218550576522 ], [ -74.135258322204876, 4.557141269458584 ], [ -74.133987083715581, 4.557463268073877 ], [ -74.133877283012822, 4.560712536729942 ], [ -74.140508195589163, 4.565068090722931 ], [ -74.140626531455439, 4.567002402097819 ], [ -74.127752998842254, 4.570258528817265 ] ] ] } },
{ "type": "Feature", "properties": { "nombre": "ISMAEL PERDOMO", "codigo_upz": "69", "codigo_loca": "19" }, "geometry": { "type": "Polygon", "coordinates": [ [ [ -74.180915132123275, 4.587880146636161 ], [ -74.183798516281925, 4.596403472923575 ], [ -74.160680917970296, 4.596193635976213 ], [ -74.16197332217817, 4.595624417410372 ], [ -74.161123434783221, 4.588146167578743 ], [ -74.157379141854292, 4.580453320782667 ], [ -74.160597640333677, 4.580103722826999 ], [ -74.159814768690822, 4.578894062589355 ], [ -74.169228971351259, 4.570962127043307 ], [ -74.175597087861817, 4.571698947850361 ], [ -74.175295715313808, 4.575390756875027 ], [ -74.17784301771691, 4.577742579259873 ], [ -74.179389460280348, 4.576976546115977 ], [ -74.180915132123275, 4.587880146636161 ] ] ] } },
{ "type": "Feature", "properties": { "nombre": "LAS NIEVES", "codigo_upz": "93", "codigo_loca": "03" }, "geometry": { "type": "Polygon", "coordinates": [ [ [ -74.072829117630974, 4.615417331944903 ], [ -74.065863772360586, 4.607172942264217 ], [ -74.068090950529168, 4.601426231990151 ], [ -74.071160717969519, 4.600608169324294 ], [ -74.076590836157422, 4.602163422201048 ], [ -74.081139025269323, 4.595067068974202 ], [ -74.084698940732437, 4.597063802298158 ], [ -74.072829117630974, 4.615417331944903 ] ] ] } },
{ "type": "Feature", "properties": { "nombre": "BRITALIA", "codigo_upz": "18", "codigo_loca": "11" }, "geometry": { "type": "Polygon", "coordinates": [ [ [ -74.046676556717514, 4.75134423072007 ], [ -74.048691975802313, 4.737778412506017 ], [ -74.064199681120201, 4.741882225505761 ], [ -74.065095905817202, 4.742472374743692 ], [ -74.066334157090836, 4.759451117898338 ], [ -74.065807061019783, 4.76045739341267 ], [ -74.057442534029704, 4.753726569554538 ], [ -74.046676556717514, 4.75134423072007 ] ] ] } }
]
}
